{
"type": "FeatureCollection",
"name": "river",
"features": [
{ "type": "Feature", "id": "0", "properties": { "_id": 1, "width": "89.03", "depth": "10.68", "manning_n": "0.8463" }, "geometry": { "type": "LineString", "coordinates": [ [ 6.407511, 62.457404 ], [ 6.407154, 62.457292 ], [ 6.406988, 62.457191 ], [ 6.406822, 62.457091 ], [ 6.406847, 62.457002 ], [ 6.406873, 62.456913 ], [ 6.406707, 62.456812 ], [ 6.406541, 62.456712 ], [ 6.406567, 62.456623 ], [ 6.406592, 62.456534 ], [ 6.406618, 62.456446 ], [ 6.406644, 62.456357 ], [ 6.406669, 62.456268 ], [ 6.406503, 62.456167 ], [ 6.406338, 62.456067 ], [ 6.406172, 62.455966 ], [ 6.406197, 62.455877 ], [ 6.406223, 62.455789 ], [ 6.406057, 62.455688 ] ] } },
{ "type": "Feature", "id": "1", "properties": { "_id": 2, "width": "94.01", "depth": "28.83", "manning_n": "0.0311" }, "geometry": { "type": "LineString", "coordinates": [ [ 6.407511, 62.457404 ], [ 6.407588, 62.457138 ], [ 6.407614, 62.457049 ], [ 6.40764, 62.456961 ], [ 6.407665, 62.456872 ], [ 6.407691, 62.456783 ], [ 6.407717, 62.456694 ], [ 6.407934, 62.456617 ], [ 6.40796, 62.456529 ], [ 6.408177, 62.456452 ], [ 6.408394, 62.456375 ], [ 6.408586, 62.456387 ], [ 6.408803, 62.45631 ], [ 6.409021, 62.456233 ], [ 6.409212, 62.456245 ], [ 6.409404, 62.456257 ], [ 6.409596, 62.456269 ], [ 6.409813, 62.456192 ], [ 6.41003, 62.456115 ], [ 6.410248, 62.456038 ], [ 6.410439, 62.45605 ], [ 6.410631, 62.456062 ], [ 6.410822, 62.456074 ], [ 6.411014, 62.456086 ] ] } },
{ "type": "Feature", "id": "2", "properties": { "_id": 3, "width": "39.54", "depth": "41.7", "manning_n": "0.3486" }, "geometry": { "type": "LineString", "coordinates": [ [ 6.407855, 62.458239 ], [ 6.407906, 62.458061 ], [ 6.407932, 62.457973 ], [ 6.407958, 62.457884 ], [ 6.408175, 62.457807 ], [ 6.408201, 62.457718 ], [ 6.408035, 62.457618 ], [ 6.407843, 62.457606 ], [ 6.407511, 62.457404 ] ] } },
{ "type": "Feature", "id": "3", "properties": { "_id": 4, "width": "60.51", "depth": "21.13", "manning_n": "0.5135" }, "geometry": { "type": "LineString", "coordinates": [ [ 6.407855, 62.458239 ], [ 6.408238, 62.458263 ], [ 6.40843, 62.458274 ], [ 6.408647, 62.458198 ] ] } },
{ "type": "Feature", "id": "4", "properties": { "_id": 5, "width": "88.2", "depth": "30.5", "manning_n": "0.3953" }, "geometry": { "type": "LineString", "coordinates": [ [ 6.475039, 62.464106 ], [ 6.475039, 62.464106 ] ] } },
{ "type": "Feature", "id": "5", "properties": { "_id": 6, "width": "79.67", "depth": "28.87", "manning_n": "0.7125" }, "geometry": { "type": "LineString", "coordinates": [ [ 6.427091, 62.467212, 0.0 ], [ 6.427119, 62.467202, 0.0 ], [ 6.427145, 62.467113, 0.0 ], [ 6.42717, 62.467024, 0.0 ], [ 6.427196, 62.466936, 0.0 ], [ 6.427221, 62.466847, 0.0 ], [ 6.427247, 62.466758, 0.0 ], [ 6.427273, 62.466669, 0.0 ], [ 6.427298, 62.466581, 0.0 ], [ 6.427324, 62.466492, 0.0 ], [ 6.427158, 62.466391, 0.0 ], [ 6.427184, 62.466303, 0.0 ], [ 6.427209, 62.466214, 0.0 ], [ 6.427235, 62.466125, 0.0 ], [ 6.42726, 62.466036, 0.0 ], [ 6.427286, 62.465948, 0.0 ], [ 6.427312, 62.465859, 0.0 ], [ 6.427337, 62.46577, 0.0 ], [ 6.427363, 62.465681, 0.0 ], [ 6.427389, 62.465593, 0.0 ], [ 6.427414, 62.465504, 0.0 ], [ 6.42744, 62.465415, 0.0 ], [ 6.427465, 62.465326, 0.0 ], [ 6.427299, 62.465226, 0.0 ], [ 6.427325, 62.465137, 0.0 ], [ 6.427351, 62.465048, 0.0 ], [ 6.427376, 62.464959, 0.0 ], [ 6.427402, 62.464871, 0.0 ], [ 6.427427, 62.464782, 0.0 ], [ 6.427261, 62.464681, 0.0 ], [ 6.427287, 62.464592, 0.0 ], [ 6.427313, 62.464504, 0.0 ], [ 6.427338, 62.464415, 0.0 ], [ 6.427364, 62.464326, 0.0 ], [ 6.42739, 62.464237, 0.0 ], [ 6.427415, 62.464149, 0.0 ], [ 6.427441, 62.46406, 0.0 ], [ 6.427466, 62.463971, 0.0 ], [ 6.427492, 62.463882, 0.0 ], [ 6.427709, 62.463806, 0.0 ], [ 6.427735, 62.463717, 0.0 ], [ 6.427952, 62.46364, 0.0 ], [ 6.427978, 62.463551, 0.0 ], [ 6.428004, 62.463462, 0.0 ], [ 6.428029, 62.463374, 0.0 ], [ 6.428055, 62.463285, 0.0 ], [ 6.42808, 62.463196, 0.0 ], [ 6.428106, 62.463107, 0.0 ], [ 6.428132, 62.463019, 0.0 ], [ 6.428157, 62.46293, 0.0 ], [ 6.428375, 62.462853, 0.0 ], [ 6.4284, 62.462764, 0.0 ], [ 6.428618, 62.462687, 0.0 ], [ 6.428835, 62.46261, 0.0 ], [ 6.428861, 62.462522, 0.0 ], [ 6.429078, 62.462445, 0.0 ], [ 6.429295, 62.462368, 0.0 ], [ 6.429513, 62.462291, 0.0 ], [ 6.42973, 62.462214, 0.0 ], [ 6.429947, 62.462137, 0.0 ], [ 6.430139, 62.462149, 0.0 ], [ 6.430356, 62.462072, 0.0 ], [ 6.430573, 62.461995, 0.0 ], [ 6.430765, 62.462007, 0.0 ], [ 6.430982, 62.46193, 0.0 ], [ 6.4312, 62.461853, 0.0 ], [ 6.431225, 62.461764, 0.0 ] ] } },
{ "type": "Feature", "id": "6", "properties": { "_id": 7, "width": "36.06", "depth": "25.07", "manning_n": "0.0082" }, "geometry": { "type": "LineString", "coordinates": [ [ 6.455692, 62.470401, 0.0 ], [ 6.455881, 62.470334, 0.0 ], [ 6.456098, 62.470257, 0.0 ], [ 6.456316, 62.47018, 0.0 ], [ 6.456533, 62.470103, 0.0 ], [ 6.456725, 62.470115, 0.0 ], [ 6.456942, 62.470038, 0.0 ], [ 6.456967, 62.469949, 0.0 ], [ 6.457185, 62.469872, 0.0 ], [ 6.45721, 62.469783, 0.0 ], [ 6.457236, 62.469695, 0.0 ], [ 6.457453, 62.469618, 0.0 ], [ 6.457479, 62.469529, 0.0 ], [ 6.457504, 62.46944, 0.0 ], [ 6.45753, 62.469351, 0.0 ], [ 6.457555, 62.469263, 0.0 ], [ 6.457581, 62.469174, 0.0 ], [ 6.457606, 62.469085, 0.0 ], [ 6.457824, 62.469008, 0.0 ], [ 6.457849, 62.468919, 0.0 ], [ 6.458067, 62.468843, 0.0 ], [ 6.458284, 62.468766, 0.0 ], [ 6.458476, 62.468777, 0.0 ], [ 6.458693, 62.4687, 0.0 ], [ 6.45891, 62.468624, 0.0 ], [ 6.459127, 62.468547, 0.0 ], [ 6.459345, 62.46847, 0.0 ], [ 6.459537, 62.468481, 0.0 ], [ 6.459754, 62.468405, 0.0 ], [ 6.459971, 62.468328, 0.0 ], [ 6.460188, 62.468251, 0.0 ], [ 6.460406, 62.468174, 0.0 ], [ 6.460623, 62.468097, 0.0 ], [ 6.460648, 62.468008, 0.0 ], [ 6.460866, 62.467931, 0.0 ], [ 6.460891, 62.467842, 0.0 ], [ 6.461109, 62.467765, 0.0 ], [ 6.461326, 62.467688, 0.0 ], [ 6.461351, 62.4676, 0.0 ], [ 6.461569, 62.467523, 0.0 ], [ 6.461786, 62.467446, 0.0 ], [ 6.461978, 62.467458, 0.0 ], [ 6.462195, 62.467381, 0.0 ], [ 6.462412, 62.467304, 0.0 ], [ 6.462604, 62.467315, 0.0 ], [ 6.462821, 62.467239, 0.0 ], [ 6.463039, 62.467162, 0.0 ], [ 6.463256, 62.467085, 0.0 ], [ 6.463473, 62.467008, 0.0 ], [ 6.46369, 62.466931, 0.0 ], [ 6.463716, 62.466842, 0.0 ], [ 6.463741, 62.466753, 0.0 ], [ 6.463959, 62.466676, 0.0 ], [ 6.464176, 62.466599, 0.0 ], [ 6.464393, 62.466522, 0.0 ], [ 6.46461, 62.466445, 0.0 ], [ 6.464802, 62.466457, 0.0 ], [ 6.465019, 62.46638, 0.0 ], [ 6.465211, 62.466392, 0.0 ], [ 6.465403, 62.466404, 0.0 ], [ 6.46562, 62.466327, 0.0 ], [ 6.465812, 62.466339, 0.0 ], [ 6.466029, 62.466262, 0.0 ], [ 6.466246, 62.466185, 0.0 ], [ 6.466464, 62.466108, 0.0 ], [ 6.466489, 62.466019, 0.0 ], [ 6.466515, 62.46593, 0.0 ], [ 6.466732, 62.465853, 0.0 ], [ 6.466949, 62.465776, 0.0 ], [ 6.467141, 62.465788, 0.0 ], [ 6.467358, 62.465711, 0.0 ], [ 6.467384, 62.465623, 0.0 ], [ 6.467601, 62.465546, 0.0 ], [ 6.467818, 62.465469, 0.0 ], [ 6.467844, 62.46538, 0.0 ], [ 6.468061, 62.465303, 0.0 ], [ 6.468278, 62.465226, 0.0 ], [ 6.46847, 62.465238, 0.0 ], [ 6.468636, 62.465338, 0.0 ], [ 6.468828, 62.46535, 0.0 ], [ 6.469045, 62.465273, 0.0 ], [ 6.469262, 62.465196, 0.0 ], [ 6.46948, 62.465119, 0.0 ], [ 6.469697, 62.465042, 0.0 ], [ 6.469914, 62.464965, 0.0 ], [ 6.470131, 62.464888, 0.0 ], [ 6.470157, 62.4648, 0.0 ], [ 6.470182, 62.464711, 0.0 ], [ 6.4704, 62.464634, 0.0 ], [ 6.470617, 62.464557, 0.0 ], [ 6.470642, 62.464468, 0.0 ], [ 6.470668, 62.464379, 0.0 ], [ 6.470693, 62.464291, 0.0 ], [ 6.470719, 62.464202, 0.0 ], [ 6.470744, 62.464113, 0.0 ], [ 6.47077, 62.464024, 0.0 ], [ 6.470604, 62.463924, 0.0 ], [ 6.470629, 62.463835, 0.0 ], [ 6.470655, 62.463746, 0.0 ], [ 6.47068, 62.463657, 0.0 ], [ 6.470706, 62.463569, 0.0 ], [ 6.470731, 62.46348, 0.0 ], [ 6.470565, 62.463379, 0.0 ], [ 6.470399, 62.463279, 0.0 ], [ 6.470232, 62.463178, 0.0 ], [ 6.470066, 62.463078, 0.0 ], [ 6.470092, 62.462989, 0.0 ], [ 6.470117, 62.4629, 0.0 ], [ 6.469951, 62.462799, 0.0 ], [ 6.469977, 62.462711, 0.0 ], [ 6.46981, 62.46261, 0.0 ], [ 6.469836, 62.462521, 0.0 ], [ 6.46967, 62.462421, 0.0 ], [ 6.469503, 62.46232, 0.0 ], [ 6.469529, 62.462231, 0.0 ], [ 6.469554, 62.462143, 0.0 ], [ 6.46958, 62.462054, 0.0 ], [ 6.469605, 62.461965, 0.0 ], [ 6.469439, 62.461865, 0.0 ], [ 6.469273, 62.461764, 0.0 ] ] } },
{ "type": "Feature", "id": "7", "properties": { "_id": 8, "width": "97.08", "depth": "25.02", "manning_n": "0.2914" }, "geometry": { "type": "LineString", "coordinates": [ [ 6.384834, 62.461597 ], [ 6.384668, 62.461496 ], [ 6.384502, 62.461396 ], [ 6.384719, 62.461319 ], [ 6.384745, 62.46123 ], [ 6.384771, 62.461141 ], [ 6.384797, 62.461053 ], [ 6.384631, 62.460952 ], [ 6.384656, 62.460863 ], [ 6.384682, 62.460775 ], [ 6.384708, 62.460686 ], [ 6.384734, 62.460597 ], [ 6.384759, 62.460508 ], [ 6.384785, 62.46042 ], [ 6.384811, 62.460331 ], [ 6.384837, 62.460242 ], [ 6.384862, 62.460153 ], [ 6.38508, 62.460076 ], [ 6.385106, 62.459988 ], [ 6.385131, 62.459899 ], [ 6.385349, 62.459822 ], [ 6.385374, 62.459733 ], [ 6.385592, 62.459657 ], [ 6.385618, 62.459568 ], [ 6.385643, 62.459479 ], [ 6.385669, 62.45939 ], [ 6.385695, 62.459302 ], [ 6.385721, 62.459213 ], [ 6.385746, 62.459124 ], [ 6.385772, 62.459035 ], [ 6.385798, 62.458947 ], [ 6.385824, 62.458858 ], [ 6.386041, 62.458781 ], [ 6.386067, 62.458692 ], [ 6.386092, 62.458604 ], [ 6.386118, 62.458515 ], [ 6.386336, 62.458438 ], [ 6.386361, 62.458349 ], [ 6.386387, 62.45826 ], [ 6.386413, 62.458172 ], [ 6.386247, 62.458071 ], [ 6.386273, 62.457982 ], [ 6.386298, 62.457894 ], [ 6.386132, 62.457793 ], [ 6.386158, 62.457704 ], [ 6.386184, 62.457615 ], [ 6.38621, 62.457527 ], [ 6.386235, 62.457438 ], [ 6.386069, 62.457337 ], [ 6.385904, 62.457237 ], [ 6.385929, 62.457148 ], [ 6.385955, 62.457059 ], [ 6.385981, 62.45697 ], [ 6.386007, 62.456882 ], [ 6.386032, 62.456793 ] ] } },
{ "type": "Feature", "id": "8", "properties": { "_id": 9, "width": "34.15", "depth": "28.4", "manning_n": "0.2732" }, "geometry": { "type": "LineString", "coordinates": [ [ 6.395837, 62.46201 ], [ 6.395696, 62.461821 ], [ 6.39553, 62.46172 ], [ 6.395339, 62.461708 ], [ 6.395147, 62.461696 ], [ 6.394981, 62.461595 ], [ 6.394789, 62.461584 ], [ 6.394623, 62.461483 ], [ 6.394649, 62.461394 ], [ 6.394675, 62.461305 ], [ 6.394701, 62.461217 ], [ 6.394726, 62.461128 ], [ 6.394752, 62.461039 ], [ 6.394586, 62.460939 ], [ 6.394612, 62.46085 ], [ 6.394446, 62.460749 ], [ 6.39428, 62.460648 ], [ 6.394497, 62.460572 ], [ 6.394523, 62.460483 ], [ 6.394549, 62.460394 ], [ 6.394766, 62.460317 ], [ 6.394792, 62.460229 ], [ 6.394817, 62.46014 ], [ 6.395035, 62.460063 ], [ 6.395061, 62.459974 ], [ 6.395086, 62.459885 ], [ 6.39492, 62.459785 ], [ 6.394754, 62.459684 ], [ 6.39478, 62.459595 ] ] } },
{ "type": "Feature", "id": "9", "properties": { "_id": 10, "width": "80.97", "depth": "28.58", "manning_n": "0.4851" }, "geometry": { "type": "LineString", "coordinates": [ [ 6.384834, 62.461597 ], [ 6.385051, 62.46152 ], [ 6.385077, 62.461432 ], [ 6.385294, 62.461355 ], [ 6.385486, 62.461367 ], [ 6.385703, 62.46129 ], [ 6.385895, 62.461302 ], [ 6.386112, 62.461225 ], [ 6.38633, 62.461148 ], [ 6.386356, 62.461059 ], [ 6.386381, 62.460971 ], [ 6.386599, 62.460894 ], [ 6.386816, 62.460817 ], [ 6.386842, 62.460728 ], [ 6.386868, 62.460639 ], [ 6.387085, 62.460563 ], [ 6.387277, 62.460575 ], [ 6.387494, 62.460498 ], [ 6.38752, 62.460409 ], [ 6.387546, 62.46032 ], [ 6.387571, 62.460231 ] ] } },
{ "type": "Feature", "id": "10", "properties": { "_id": 11, "width": "27.11", "depth": "25.46", "manning_n": "0.6974" }, "geometry": { "type": "LineString", "coordinates": [ [ 6.394504, 62.463915 ], [ 6.395271, 62.463962 ], [ 6.395488, 62.463886 ], [ 6.395706, 62.463809 ], [ 6.395731, 62.46372 ], [ 6.395757, 62.463631 ], [ 6.395783, 62.463543 ], [ 6.396, 62.463466 ], [ 6.396218, 62.463389 ], [ 6.396435, 62.463312 ], [ 6.396461, 62.463223 ], [ 6.396486, 62.463135 ], [ 6.396704, 62.463058 ], [ 6.396921, 62.462981 ], [ 6.397139, 62.462904 ], [ 6.39733, 62.462916 ], [ 6.397548, 62.462839 ], [ 6.397765, 62.462762 ], [ 6.397982, 62.462685 ], [ 6.3982, 62.462609 ], [ 6.398226, 62.46252 ], [ 6.398443, 62.462443 ], [ 6.39866, 62.462366 ], [ 6.398878, 62.462289 ], [ 6.398903, 62.4622 ], [ 6.399121, 62.462124 ], [ 6.399338, 62.462047 ], [ 6.399556, 62.46197 ], [ 6.399773, 62.461893 ], [ 6.39999, 62.461816 ], [ 6.400208, 62.461739 ], [ 6.400234, 62.461651 ], [ 6.400451, 62.461574 ], [ 6.400668, 62.461497 ], [ 6.400886, 62.46142 ], [ 6.401103, 62.461343 ], [ 6.40132, 62.461266 ], [ 6.401346, 62.461178 ], [ 6.401564, 62.461101 ], [ 6.401589, 62.461012 ], [ 6.401615, 62.460923 ], [ 6.401832, 62.460846 ], [ 6.40205, 62.46077 ], [ 6.402267, 62.460693 ], [ 6.402484, 62.460616 ], [ 6.402702, 62.460539 ], [ 6.402919, 62.460462 ], [ 6.403137, 62.460385 ], [ 6.403328, 62.460397 ], [ 6.40352, 62.460409 ], [ 6.403712, 62.460421 ], [ 6.403903, 62.460433 ], [ 6.404095, 62.460445 ], [ 6.404312, 62.460368 ], [ 6.40453, 62.460291 ], [ 6.404747, 62.460214 ], [ 6.404964, 62.460137 ], [ 6.405182, 62.460061 ], [ 6.405207, 62.459972 ], [ 6.405425, 62.459895 ], [ 6.405642, 62.459818 ], [ 6.405668, 62.459729 ], [ 6.405885, 62.459652 ], [ 6.406103, 62.459576 ], [ 6.406128, 62.459487 ], [ 6.406346, 62.45941 ], [ 6.406371, 62.459321 ], [ 6.406589, 62.459244 ], [ 6.406614, 62.459156 ], [ 6.40664, 62.459067 ], [ 6.406666, 62.458978 ], [ 6.406883, 62.458901 ], [ 6.4071, 62.458824 ], [ 6.407126, 62.458736 ], [ 6.407343, 62.458659 ], [ 6.407369, 62.45857 ], [ 6.407395, 62.458481 ], [ 6.407612, 62.458404 ], [ 6.407855, 62.458239 ] ] } },
{ "type": "Feature", "id": "11", "properties": { "_id": 12, "width": "38.09", "depth": "6.37", "manning_n": "0.5363" }, "geometry": { "type": "LineString", "coordinates": [ [ 6.397767, 62.461407 ], [ 6.397819, 62.46123 ], [ 6.397845, 62.461141 ], [ 6.39787, 62.461052 ], [ 6.398088, 62.460975 ] ] } },
{ "type": "Feature", "id": "12", "properties": { "_id": 13, "width": "96.24", "depth": "24.13", "manning_n": "0.6071" }, "geometry": { "type": "LineString", "coordinates": [ [ 6.397767, 62.461407 ], [ 6.398176, 62.461342 ], [ 6.398368, 62.461354 ] ] } },
{ "type": "Feature", "id": "13", "properties": { "_id": 14, "width": "51.13", "depth": "24.49", "manning_n": "0.6417" }, "geometry": { "type": "LineString", "coordinates": [ [ 6.397767, 62.461407 ], [ 6.397716, 62.461585 ] ] } },
{ "type": "Feature", "id": "14", "properties": { "_id": 15, "width": "74.42", "depth": "42.04", "manning_n": "0.5315" }, "geometry": { "type": "LineString", "coordinates": [ [ 6.395837, 62.46201 ], [ 6.396246, 62.461945 ], [ 6.396463, 62.461868 ], [ 6.39668, 62.461791 ], [ 6.396898, 62.461715 ], [ 6.397115, 62.461638 ], [ 6.397333, 62.461561 ], [ 6.397767, 62.461407 ] ] } },
{ "type": "Feature", "id": "15", "properties": { "_id": 16, "width": "86.5", "depth": "47.1", "manning_n": "0.3635" }, "geometry": { "type": "LineString", "coordinates": [ [ 6.394504, 62.463915 ], [ 6.394006, 62.463613 ], [ 6.394032, 62.463524 ], [ 6.394249, 62.463447 ], [ 6.394275, 62.463359 ], [ 6.394301, 62.46327 ], [ 6.394518, 62.463193 ], [ 6.394735, 62.463116 ], [ 6.394927, 62.463128 ], [ 6.395145, 62.463051 ], [ 6.394979, 62.462951 ], [ 6.395004, 62.462862 ], [ 6.39503, 62.462773 ], [ 6.395247, 62.462696 ], [ 6.395081, 62.462596 ], [ 6.395299, 62.462519 ], [ 6.395325, 62.46243 ], [ 6.395542, 62.462353 ], [ 6.395759, 62.462276 ], [ 6.395977, 62.462199 ], [ 6.395837, 62.46201 ] ] } },
{ "type": "Feature", "id": "16", "properties": { "_id": 17, "width": "48.93", "depth": "24.53", "manning_n": "0.4002" }, "geometry": { "type": "LineString", "coordinates": [ [ 6.382104, 62.464951 ], [ 6.382156, 62.464773 ], [ 6.382181, 62.464685 ], [ 6.382015, 62.464584 ], [ 6.382041, 62.464495 ], [ 6.382259, 62.464418 ], [ 6.382284, 62.46433 ], [ 6.382502, 62.464253 ], [ 6.382719, 62.464176 ], [ 6.382937, 62.464099 ], [ 6.383154, 62.464022 ], [ 6.383372, 62.463946 ], [ 6.383397, 62.463857 ], [ 6.383231, 62.463756 ], [ 6.383257, 62.463667 ], [ 6.383283, 62.463579 ], [ 6.383309, 62.46349 ], [ 6.383334, 62.463401 ], [ 6.38336, 62.463312 ], [ 6.383386, 62.463224 ], [ 6.383603, 62.463147 ], [ 6.383629, 62.463058 ], [ 6.383655, 62.462969 ], [ 6.383681, 62.462881 ], [ 6.383898, 62.462804 ], [ 6.384116, 62.462727 ], [ 6.384333, 62.46265 ], [ 6.384359, 62.462561 ], [ 6.384385, 62.462473 ], [ 6.38441, 62.462384 ], [ 6.384436, 62.462295 ], [ 6.384462, 62.462206 ], [ 6.384488, 62.462118 ], [ 6.384705, 62.462041 ], [ 6.384731, 62.461952 ], [ 6.384756, 62.461863 ], [ 6.384782, 62.461775 ], [ 6.384808, 62.461686 ], [ 6.384834, 62.461597 ] ] } },
{ "type": "Feature", "id": "17", "properties": { "_id": 18, "width": "84.96", "depth": "22.7", "manning_n": "0.0446" }, "geometry": { "type": "LineString", "coordinates": [ [ 6.370547, 62.461069 ], [ 6.37093, 62.461093 ], [ 6.371122, 62.461105 ], [ 6.371314, 62.461117 ], [ 6.371531, 62.46104 ], [ 6.371697, 62.461141 ], [ 6.371863, 62.461241 ], [ 6.372029, 62.461342 ], [ 6.372221, 62.461354 ], [ 6.372412, 62.461366 ], [ 6.372604, 62.461378 ], [ 6.372796, 62.46139 ], [ 6.372961, 62.461491 ], [ 6.373153, 62.461502 ], [ 6.373371, 62.461426 ], [ 6.373588, 62.461349 ], [ 6.37378, 62.461361 ], [ 6.373971, 62.461373 ], [ 6.374189, 62.461296 ], [ 6.37438, 62.461308 ], [ 6.374572, 62.46132 ], [ 6.37479, 62.461243 ], [ 6.374981, 62.461255 ], [ 6.375173, 62.461267 ], [ 6.375339, 62.461368 ], [ 6.37553, 62.46138 ], [ 6.375748, 62.461303 ], [ 6.375965, 62.461226 ], [ 6.375991, 62.461137 ], [ 6.376017, 62.461048 ], [ 6.376043, 62.46096 ], [ 6.376068, 62.460871 ], [ 6.376286, 62.460794 ], [ 6.376478, 62.460806 ], [ 6.376669, 62.460818 ], [ 6.376861, 62.46083 ], [ 6.377078, 62.460753 ], [ 6.37727, 62.460765 ], [ 6.377462, 62.460777 ], [ 6.377679, 62.4607 ], [ 6.377871, 62.460712 ], [ 6.378062, 62.460724 ], [ 6.378254, 62.460736 ], [ 6.378472, 62.460659 ], [ 6.378306, 62.460558 ], [ 6.378523, 62.460482 ], [ 6.378549, 62.460393 ], [ 6.378575, 62.460304 ], [ 6.3786, 62.460215 ], [ 6.378818, 62.460139 ], [ 6.378844, 62.46005 ], [ 6.378869, 62.459961 ], [ 6.379087, 62.459884 ], [ 6.379304, 62.459807 ], [ 6.37933, 62.459719 ], [ 6.379547, 62.459642 ], [ 6.379765, 62.459565 ], [ 6.379791, 62.459476 ], [ 6.379816, 62.459388 ], [ 6.380034, 62.459311 ], [ 6.380059, 62.459222 ], [ 6.380277, 62.459145 ], [ 6.380303, 62.459056 ], [ 6.380328, 62.458968 ], [ 6.380546, 62.458891 ], [ 6.380572, 62.458802 ], [ 6.380597, 62.458713 ], [ 6.380623, 62.458625 ], [ 6.380841, 62.458548 ], [ 6.380866, 62.458459 ], [ 6.380892, 62.45837 ], [ 6.380918, 62.458282 ], [ 6.380944, 62.458193 ], [ 6.380969, 62.458104 ], [ 6.380995, 62.458015 ], [ 6.381212, 62.457939 ], [ 6.38143, 62.457862 ] ] } },
{ "type": "Feature", "id": "18", "properties": { "_id": 19, "width": "26.11", "depth": "11.06", "manning_n": "0.399" }, "geometry": { "type": "LineString", "coordinates": [ [ 6.370547, 62.461069 ], [ 6.370599, 62.460892 ], [ 6.370625, 62.460803 ], [ 6.37065, 62.460714 ], [ 6.370676, 62.460625 ], [ 6.370702, 62.460537 ], [ 6.370919, 62.46046 ], [ 6.370945, 62.460371 ] ] } },
{ "type": "Feature", "id": "19", "properties": { "_id": 20, "width": "54.12", "depth": "12.78", "manning_n": "0.0221" }, "geometry": { "type": "LineString", "coordinates": [ [ 6.36535, 62.464179 ], [ 6.365376, 62.46409 ], [ 6.36521, 62.463989 ], [ 6.365044, 62.463888 ], [ 6.364878, 62.463788 ], [ 6.364712, 62.463687 ], [ 6.364546, 62.463586 ], [ 6.364381, 62.463486 ], [ 6.364215, 62.463385 ], [ 6.364049, 62.463284 ], [ 6.364075, 62.463195 ], [ 6.363909, 62.463095 ], [ 6.363717, 62.463083 ], [ 6.363551, 62.462982 ], [ 6.363385, 62.462881 ], [ 6.363194, 62.46287 ], [ 6.363028, 62.462769 ], [ 6.362836, 62.462757 ], [ 6.36267, 62.462656 ], [ 6.362504, 62.462555 ], [ 6.36253, 62.462467 ], [ 6.362364, 62.462366 ], [ 6.362199, 62.462265 ], [ 6.362224, 62.462177 ], [ 6.362059, 62.462076 ], [ 6.361893, 62.461975 ], [ 6.361701, 62.461963 ], [ 6.361509, 62.461951 ], [ 6.361318, 62.461939 ], [ 6.361126, 62.461927 ], [ 6.360934, 62.461915 ], [ 6.360769, 62.461815 ], [ 6.360794, 62.461726 ], [ 6.360629, 62.461625 ], [ 6.360463, 62.461525 ], [ 6.360297, 62.461424 ], [ 6.360105, 62.461412 ], [ 6.359914, 62.4614 ], [ 6.359696, 62.461477 ], [ 6.359504, 62.461465 ], [ 6.359313, 62.461453 ], [ 6.359147, 62.461352 ], [ 6.358981, 62.461251 ], [ 6.358815, 62.461151 ], [ 6.359033, 62.461074 ], [ 6.35925, 62.460997 ], [ 6.359276, 62.460908 ], [ 6.359494, 62.460832 ], [ 6.359519, 62.460743 ], [ 6.359545, 62.460654 ], [ 6.359571, 62.460565 ], [ 6.359405, 62.460465 ], [ 6.359239, 62.460364 ], [ 6.359074, 62.460263 ], [ 6.358856, 62.46034 ], [ 6.358664, 62.460328 ], [ 6.358473, 62.460316 ], [ 6.358255, 62.460393 ], [ 6.358064, 62.460381 ], [ 6.358064, 62.460381 ] ] } },
{ "type": "Feature", "id": "20", "properties": { "_id": 21, "width": "89.65", "depth": "8.86", "manning_n": "0.9422" }, "geometry": { "type": "LineString", "coordinates": [ [ 6.369784, 62.464365 ], [ 6.370028, 62.464199 ], [ 6.370245, 62.464122 ], [ 6.370463, 62.464045 ], [ 6.37068, 62.463969 ], [ 6.370898, 62.463892 ], [ 6.370732, 62.463791 ], [ 6.370758, 62.463702 ], [ 6.370592, 62.463602 ], [ 6.370426, 62.463501 ], [ 6.370452, 62.463412 ], [ 6.370286, 62.463312 ], [ 6.37012, 62.463211 ], [ 6.369954, 62.46311 ], [ 6.36998, 62.463021 ], [ 6.370005, 62.462933 ], [ 6.370031, 62.462844 ], [ 6.370249, 62.462767 ], [ 6.370275, 62.462678 ], [ 6.3703, 62.46259 ], [ 6.370134, 62.462489 ], [ 6.369969, 62.462388 ], [ 6.369803, 62.462288 ], [ 6.369829, 62.462199 ], [ 6.369854, 62.46211 ], [ 6.36988, 62.462021 ], [ 6.369906, 62.461933 ], [ 6.370123, 62.461856 ], [ 6.370341, 62.461779 ], [ 6.370367, 62.46169 ], [ 6.370392, 62.461602 ], [ 6.370418, 62.461513 ], [ 6.370444, 62.461424 ], [ 6.37047, 62.461335 ], [ 6.370496, 62.461247 ], [ 6.370547, 62.461069 ] ] } },
{ "type": "Feature", "id": "21", "properties": { "_id": 22, "width": "95.88", "depth": "40.01", "manning_n": "0.7495" }, "geometry": { "type": "LineString", "coordinates": [ [ 6.36535, 62.464179 ], [ 6.365516, 62.464279 ], [ 6.365682, 62.46438 ], [ 6.365848, 62.464481 ], [ 6.366013, 62.464581 ], [ 6.366179, 62.464682 ], [ 6.366345, 62.464783 ], [ 6.366511, 62.464883 ], [ 6.366703, 62.464895 ], [ 6.366894, 62.464907 ], [ 6.367086, 62.464919 ], [ 6.367278, 62.464931 ], [ 6.367469, 62.464943 ], [ 6.367661, 62.464955 ], [ 6.367879, 62.464878 ], [ 6.368096, 62.464801 ], [ 6.368288, 62.464813 ], [ 6.368505, 62.464737 ], [ 6.368723, 62.46466 ], [ 6.36894, 62.464583 ], [ 6.369158, 62.464506 ], [ 6.369375, 62.464429 ], [ 6.369784, 62.464365 ] ] } },
{ "type": "Feature", "id": "22", "properties": { "_id": 23, "width": "88.45", "depth": "21.98", "manning_n": "0.9893" }, "geometry": { "type": "LineString", "coordinates": [ [ 6.369784, 62.464365 ], [ 6.370168, 62.464388 ], [ 6.370359, 62.4644 ], [ 6.370525, 62.464501 ], [ 6.370691, 62.464602 ], [ 6.370883, 62.464614 ], [ 6.371075, 62.464626 ], [ 6.371266, 62.464638 ], [ 6.371484, 62.464561 ], [ 6.371675, 62.464573 ], [ 6.371893, 62.464496 ], [ 6.372085, 62.464508 ], [ 6.372276, 62.46452 ], [ 6.372468, 62.464532 ], [ 6.372685, 62.464455 ], [ 6.372877, 62.464467 ], [ 6.373095, 62.46439 ], [ 6.373286, 62.464402 ], [ 6.373504, 62.464325 ], [ 6.373721, 62.464248 ], [ 6.373913, 62.46426 ], [ 6.37413, 62.464184 ], [ 6.374322, 62.464195 ], [ 6.374514, 62.464207 ], [ 6.374705, 62.464219 ], [ 6.374897, 62.464231 ], [ 6.375063, 62.464332 ], [ 6.375255, 62.464344 ], [ 6.375446, 62.464356 ], [ 6.375612, 62.464456 ], [ 6.375804, 62.464468 ], [ 6.37597, 62.464569 ], [ 6.376162, 62.464581 ], [ 6.376353, 62.464593 ], [ 6.376545, 62.464605 ], [ 6.376737, 62.464617 ], [ 6.376928, 62.464629 ], [ 6.37712, 62.464641 ], [ 6.377312, 62.464653 ], [ 6.377478, 62.464753 ], [ 6.377644, 62.464854 ], [ 6.377835, 62.464866 ], [ 6.378027, 62.464878 ], [ 6.378219, 62.46489 ], [ 6.37841, 62.464902 ], [ 6.378602, 62.464914 ], [ 6.378794, 62.464926 ], [ 6.378985, 62.464938 ], [ 6.379177, 62.464949 ], [ 6.379369, 62.464961 ], [ 6.379561, 62.464973 ], [ 6.379778, 62.464897 ], [ 6.37997, 62.464908 ], [ 6.380161, 62.46492 ], [ 6.380353, 62.464932 ], [ 6.380545, 62.464944 ], [ 6.380736, 62.464956 ], [ 6.380928, 62.464968 ], [ 6.38112, 62.46498 ], [ 6.381337, 62.464903 ], [ 6.381529, 62.464915 ], [ 6.381721, 62.464927 ], [ 6.382104, 62.464951 ] ] } },
{ "type": "Feature", "id": "23", "properties": { "_id": 24, "width": "44.22", "depth": "35.47", "manning_n": "0.9501" }, "geometry": { "type": "LineString", "coordinates": [ [ 6.359167, 62.467317 ], [ 6.359193, 62.467228 ], [ 6.359219, 62.467139 ], [ 6.359436, 62.467062 ], [ 6.359462, 62.466974 ], [ 6.359488, 62.466885 ], [ 6.359514, 62.466796 ], [ 6.35954, 62.466707 ], [ 6.359757, 62.466631 ], [ 6.359949, 62.466643 ], [ 6.360167, 62.466566 ], [ 6.360192, 62.466477 ], [ 6.36041, 62.4664 ], [ 6.360627, 62.466324 ], [ 6.360845, 62.466247 ], [ 6.361062, 62.46617 ], [ 6.36128, 62.466093 ], [ 6.361497, 62.466016 ], [ 6.361715, 62.46594 ], [ 6.361741, 62.465851 ], [ 6.361767, 62.465762 ], [ 6.361984, 62.465685 ], [ 6.36201, 62.465597 ], [ 6.362227, 62.46552 ], [ 6.362445, 62.465443 ], [ 6.362663, 62.465366 ], [ 6.36288, 62.465289 ], [ 6.363098, 62.465213 ], [ 6.363289, 62.465225 ], [ 6.363507, 62.465148 ], [ 6.363724, 62.465071 ], [ 6.363916, 62.465083 ], [ 6.364082, 62.465184 ], [ 6.364299, 62.465107 ], [ 6.364325, 62.465018 ], [ 6.364159, 62.464917 ], [ 6.364185, 62.464829 ], [ 6.364403, 62.464752 ], [ 6.36462, 62.464675 ], [ 6.364838, 62.464598 ], [ 6.365055, 62.464522 ], [ 6.365081, 62.464433 ], [ 6.365107, 62.464344 ], [ 6.365132, 62.464255 ], [ 6.36535, 62.464179 ] ] } },
{ "type": "Feature", "id": "24", "properties": { "_id": 25, "width": "82.5", "depth": "28.17", "manning_n": "0.6508" }, "geometry": { "type": "LineString", "coordinates": [ [ 6.394504, 62.463915 ], [ 6.393737, 62.463867 ], [ 6.393571, 62.463767 ], [ 6.393405, 62.463666 ], [ 6.393188, 62.463743 ], [ 6.392996, 62.463731 ], [ 6.392804, 62.463719 ], [ 6.392638, 62.463618 ], [ 6.392447, 62.463606 ], [ 6.392255, 62.463594 ], [ 6.392063, 62.463583 ], [ 6.391872, 62.463571 ], [ 6.39168, 62.463559 ], [ 6.391463, 62.463636 ], [ 6.391271, 62.463624 ], [ 6.391079, 62.463612 ], [ 6.390913, 62.463511 ], [ 6.390747, 62.46341 ], [ 6.390556, 62.463398 ] ] } },
{ "type": "Feature", "id": "25", "properties": { "_id": 26, "width": "82.7", "depth": "17.9", "manning_n": "0.6371" }, "geometry": { "type": "LineString", "coordinates": [ [ 6.394504, 62.463915 ], [ 6.394747, 62.463749 ], [ 6.394581, 62.463649 ], [ 6.394389, 62.463637 ], [ 6.394504, 62.463915 ] ] } },
{ "type": "Feature", "id": "26", "properties": { "_id": 27, "width": "17.56", "depth": "31.98", "manning_n": "0.5111" }, "geometry": { "type": "LineString", "coordinates": [ [ 6.39519, 62.464915, 0.0 ], [ 6.395205, 62.464862, 0.0 ], [ 6.395231, 62.464773, 0.0 ], [ 6.395065, 62.464672, 0.0 ], [ 6.394899, 62.464572, 0.0 ], [ 6.394925, 62.464483, 0.0 ], [ 6.39495, 62.464394, 0.0 ], [ 6.394976, 62.464306, 0.0 ], [ 6.39481, 62.464205, 0.0 ], [ 6.394504, 62.463915, 0.0 ] ] } },
{ "type": "Feature", "id": "27", "properties": { "_id": 28, "width": "33.34", "depth": "11.48", "manning_n": "0.1307" }, "geometry": { "type": "LineString", "coordinates": [ [ 6.410182, 62.464985, 0.0 ], [ 6.410198, 62.464979, 0.0 ] ] } },
{ "type": "Feature", "id": "28", "properties": { "_id": 29, "width": "64.87", "depth": "16.79", "manning_n": "0.5722" }, "geometry": { "type": "LineString", "coordinates": [ [ 6.386436, 62.465491 ], [ 6.386078, 62.465379 ], [ 6.385912, 62.465278 ], [ 6.385721, 62.465266 ], [ 6.385503, 62.465343 ], [ 6.385311, 62.465331 ], [ 6.385145, 62.46523 ], [ 6.384954, 62.465219 ], [ 6.384762, 62.465207 ], [ 6.38457, 62.465195 ], [ 6.384404, 62.465094 ], [ 6.38443, 62.465005 ], [ 6.384264, 62.464905 ], [ 6.384047, 62.464981 ], [ 6.383855, 62.464969 ], [ 6.383663, 62.464958 ], [ 6.383472, 62.464946 ], [ 6.38328, 62.464934 ], [ 6.383088, 62.464922 ], [ 6.382897, 62.46491 ], [ 6.382679, 62.464987 ], [ 6.382487, 62.464975 ], [ 6.382104, 62.464951 ] ] } },
{ "type": "Feature", "id": "29", "properties": { "_id": 30, "width": "84.43", "depth": "33.63", "manning_n": "0.6225" }, "geometry": { "type": "LineString", "coordinates": [ [ 6.400986, 62.465607, 0.0 ], [ 6.401045, 62.465586, 0.0 ] ] } },
{ "type": "Feature", "id": "30", "properties": { "_id": 31, "width": "52.74", "depth": "22.09", "manning_n": "0.7438" }, "geometry": { "type": "LineString", "coordinates": [ [ 6.388545, 62.466155, 0.0 ], [ 6.388224, 62.466054, 0.0 ], [ 6.388032, 62.466042, 0.0 ], [ 6.387866, 62.465942, 0.0 ], [ 6.3877, 62.465841, 0.0 ], [ 6.387535, 62.46574, 0.0 ], [ 6.387369, 62.46564, 0.0 ], [ 6.387203, 62.465539, 0.0 ], [ 6.387037, 62.465438, 0.0 ], [ 6.386819, 62.465515, 0.0 ], [ 6.386436, 62.465491, 0.0 ] ] } },
{ "type": "Feature", "id": "31", "properties": { "_id": 32, "width": "68.32", "depth": "23.71", "manning_n": "0.1243" }, "geometry": { "type": "LineString", "coordinates": [ [ 6.381723, 62.469625 ], [ 6.381749, 62.469537 ], [ 6.381774, 62.469448 ], [ 6.3818, 62.469359 ], [ 6.381634, 62.469258 ], [ 6.381468, 62.469158 ], [ 6.381686, 62.469081 ], [ 6.381712, 62.468992 ], [ 6.381737, 62.468903 ], [ 6.381955, 62.468827 ], [ 6.382172, 62.46875 ], [ 6.38239, 62.468673 ], [ 6.382415, 62.468584 ], [ 6.382441, 62.468495 ], [ 6.382467, 62.468407 ], [ 6.382493, 62.468318 ], [ 6.38271, 62.468241 ], [ 6.382928, 62.468164 ], [ 6.382953, 62.468076 ], [ 6.382979, 62.467987 ], [ 6.383005, 62.467898 ], [ 6.383031, 62.467809 ], [ 6.383057, 62.467721 ], [ 6.383082, 62.467632 ], [ 6.383108, 62.467543 ], [ 6.383326, 62.467466 ], [ 6.383517, 62.467478 ], [ 6.383709, 62.46749 ], [ 6.383901, 62.467502 ], [ 6.384092, 62.467514 ], [ 6.38431, 62.467437 ], [ 6.384336, 62.467348 ], [ 6.38417, 62.467248 ], [ 6.384004, 62.467147 ], [ 6.384029, 62.467058 ], [ 6.383864, 62.466958 ], [ 6.383698, 62.466857 ], [ 6.383723, 62.466768 ], [ 6.383749, 62.46668 ], [ 6.383775, 62.466591 ], [ 6.383801, 62.466502 ], [ 6.383826, 62.466413 ], [ 6.383852, 62.466325 ], [ 6.383686, 62.466224 ], [ 6.383712, 62.466135 ], [ 6.383929, 62.466058 ], [ 6.384147, 62.465981 ], [ 6.384339, 62.465993 ], [ 6.384556, 62.465917 ], [ 6.384773, 62.46584 ], [ 6.384939, 62.46594 ], [ 6.385131, 62.465952 ], [ 6.385323, 62.465964 ], [ 6.385489, 62.466065 ], [ 6.38568, 62.466077 ], [ 6.385898, 62.466 ], [ 6.386115, 62.465923 ], [ 6.385949, 62.465823 ], [ 6.386167, 62.465746 ], [ 6.386193, 62.465657 ], [ 6.386436, 62.465491 ] ] } },
{ "type": "Feature", "id": "32", "properties": { "_id": 33, "width": "84.58", "depth": "28.76", "manning_n": "0.3766" }, "geometry": { "type": "LineString", "coordinates": [ [ 6.385008, 62.469739, 0.0 ], [ 6.3852, 62.469751, 0.0 ], [ 6.385417, 62.469674, 0.0 ], [ 6.385583, 62.469775, 0.0 ], [ 6.385801, 62.469698, 0.0 ], [ 6.385826, 62.469609, 0.0 ], [ 6.386044, 62.469533, 0.0 ], [ 6.386261, 62.469456, 0.0 ], [ 6.386453, 62.469468, 0.0 ], [ 6.386671, 62.469391, 0.0 ], [ 6.386888, 62.469314, 0.0 ], [ 6.387105, 62.469237, 0.0 ], [ 6.387323, 62.46916, 0.0 ], [ 6.38754, 62.469084, 0.0 ], [ 6.387758, 62.469007, 0.0 ], [ 6.387975, 62.46893, 0.0 ], [ 6.388001, 62.468841, 0.0 ], [ 6.388219, 62.468764, 0.0 ], [ 6.388436, 62.468688, 0.0 ], [ 6.388654, 62.468611, 0.0 ], [ 6.388679, 62.468522, 0.0 ], [ 6.388858, 62.468459, 0.0 ] ] } },
{ "type": "Feature", "id": "33", "properties": { "_id": 34, "width": "97.45", "depth": "35.34", "manning_n": "0.1201" }, "geometry": { "type": "LineString", "coordinates": [ [ 6.394019, 62.470299, 0.0 ], [ 6.394211, 62.470311, 0.0 ], [ 6.394428, 62.470234, 0.0 ], [ 6.39462, 62.470246, 0.0 ], [ 6.394838, 62.47017, 0.0 ], [ 6.395055, 62.470093, 0.0 ], [ 6.395247, 62.470105, 0.0 ], [ 6.395464, 62.470028, 0.0 ], [ 6.395682, 62.469951, 0.0 ], [ 6.395899, 62.469874, 0.0 ], [ 6.395925, 62.469785, 0.0 ], [ 6.395759, 62.469685, 0.0 ], [ 6.395567, 62.469673, 0.0 ], [ 6.39548, 62.46962, 0.0 ] ] } },
{ "type": "Feature", "id": "34", "properties": { "_id": 35, "width": "30.82", "depth": "11.25", "manning_n": "0.0628" }, "geometry": { "type": "LineString", "coordinates": [ [ 6.436201, 62.468192, 0.0 ], [ 6.43622, 62.468126, 0.0 ], [ 6.436245, 62.468037, 0.0 ], [ 6.436463, 62.467961, 0.0 ], [ 6.436488, 62.467872, 0.0 ], [ 6.436514, 62.467783, 0.0 ], [ 6.436348, 62.467682, 0.0 ], [ 6.436373, 62.467594, 0.0 ], [ 6.436207, 62.467493, 0.0 ], [ 6.436233, 62.467404, 0.0 ], [ 6.436259, 62.467316, 0.0 ], [ 6.436284, 62.467227, 0.0 ], [ 6.43631, 62.467138, 0.0 ], [ 6.436335, 62.467049, 0.0 ], [ 6.436361, 62.466961, 0.0 ], [ 6.436387, 62.466872, 0.0 ], [ 6.436412, 62.466783, 0.0 ], [ 6.436629, 62.466706, 0.0 ], [ 6.436655, 62.466617, 0.0 ], [ 6.436681, 62.466529, 0.0 ], [ 6.436898, 62.466452, 0.0 ], [ 6.436924, 62.466363, 0.0 ], [ 6.437141, 62.466286, 0.0 ], [ 6.437167, 62.466197, 0.0 ], [ 6.437192, 62.466108, 0.0 ], [ 6.437218, 62.46602, 0.0 ] ] } },
{ "type": "Feature", "id": "35", "properties": { "_id": 36, "width": "84.92", "depth": "7.02", "manning_n": "0.9153" }, "geometry": { "type": "LineString", "coordinates": [ [ 6.446374, 62.469463, 0.0 ], [ 6.446395, 62.469387, 0.0 ], [ 6.446421, 62.469298, 0.0 ], [ 6.446446, 62.46921, 0.0 ], [ 6.446472, 62.469121, 0.0 ], [ 6.446497, 62.469032, 0.0 ], [ 6.446523, 62.468943, 0.0 ], [ 6.446549, 62.468855, 0.0 ], [ 6.446574, 62.468766, 0.0 ], [ 6.4466, 62.468677, 0.0 ], [ 6.446625, 62.468588, 0.0 ], [ 6.446651, 62.4685, 0.0 ], [ 6.446676, 62.468411, 0.0 ], [ 6.446702, 62.468322, 0.0 ], [ 6.446728, 62.468233, 0.0 ], [ 6.446753, 62.468145, 0.0 ], [ 6.446779, 62.468056, 0.0 ], [ 6.446804, 62.467967, 0.0 ], [ 6.44683, 62.467878, 0.0 ], [ 6.446855, 62.46779, 0.0 ], [ 6.446881, 62.467701, 0.0 ], [ 6.446907, 62.467612, 0.0 ], [ 6.446932, 62.467523, 0.0 ], [ 6.446958, 62.467434, 0.0 ], [ 6.446983, 62.467346, 0.0 ], [ 6.447009, 62.467257, 0.0 ], [ 6.447034, 62.467168, 0.0 ] ] } },
{ "type": "Feature", "id": "36", "properties": { "_id": 37, "width": "25.55", "depth": "40.01", "manning_n": "0.6423" }, "geometry": { "type": "LineString", "coordinates": [ [ 6.481581, 62.472548, 0.0 ], [ 6.481592, 62.472549, 0.0 ], [ 6.48181, 62.472472, 0.0 ], [ 6.482027, 62.472395, 0.0 ], [ 6.482244, 62.472318, 0.0 ], [ 6.482462, 62.472241, 0.0 ], [ 6.482679, 62.472164, 0.0 ], [ 6.482704, 62.472076, 0.0 ], [ 6.48273, 62.471987, 0.0 ], [ 6.482755, 62.471898, 0.0 ], [ 6.482972, 62.471821, 0.0 ], [ 6.482998, 62.471732, 0.0 ], [ 6.483215, 62.471655, 0.0 ], [ 6.483432, 62.471578, 0.0 ], [ 6.483458, 62.47149, 0.0 ], [ 6.483483, 62.471401, 0.0 ], [ 6.483509, 62.471312, 0.0 ], [ 6.483534, 62.471223, 0.0 ], [ 6.48356, 62.471135, 0.0 ], [ 6.483585, 62.471046, 0.0 ], [ 6.483611, 62.470957, 0.0 ], [ 6.483828, 62.47088, 0.0 ], [ 6.483853, 62.470791, 0.0 ], [ 6.483879, 62.470703, 0.0 ], [ 6.483904, 62.470614, 0.0 ], [ 6.48393, 62.470525, 0.0 ], [ 6.483955, 62.470436, 0.0 ], [ 6.484173, 62.470359, 0.0 ], [ 6.48439, 62.470282, 0.0 ], [ 6.484607, 62.470205, 0.0 ], [ 6.484824, 62.470128, 0.0 ], [ 6.485042, 62.470051, 0.0 ], [ 6.485259, 62.469974, 0.0 ], [ 6.485284, 62.469886, 0.0 ], [ 6.485501, 62.469809, 0.0 ], [ 6.485719, 62.469732, 0.0 ], [ 6.485936, 62.469655, 0.0 ], [ 6.486153, 62.469578, 0.0 ], [ 6.486179, 62.469489, 0.0 ], [ 6.486204, 62.4694, 0.0 ], [ 6.486421, 62.469323, 0.0 ], [ 6.486639, 62.469246, 0.0 ], [ 6.486856, 62.469169, 0.0 ], [ 6.486881, 62.46908, 0.0 ], [ 6.487098, 62.469003, 0.0 ], [ 6.487124, 62.468915, 0.0 ], [ 6.487341, 62.468838, 0.0 ], [ 6.487558, 62.468761, 0.0 ], [ 6.487584, 62.468672, 0.0 ], [ 6.487801, 62.468595, 0.0 ], [ 6.487993, 62.468607, 0.0 ], [ 6.48821, 62.46853, 0.0 ], [ 6.488402, 62.468541, 0.0 ], [ 6.488619, 62.468464, 0.0 ], [ 6.488836, 62.468387, 0.0 ] ] } },
{ "type": "Feature", "id": "37", "properties": { "_id": 38, "width": "36.03", "depth": "48.89", "manning_n": "0.5388" }, "geometry": { "type": "LineString", "coordinates": [ [ 6.480267, 62.472408, 0.0 ], [ 6.480275, 62.472378, 0.0 ] ] } },
{ "type": "Feature", "id": "38", "properties": { "_id": 39, "width": "68.95", "depth": "28.43", "manning_n": "0.2535" }, "geometry": { "type": "LineString", "coordinates": [ [ 6.484487, 62.473518, 0.0 ], [ 6.484649, 62.47346, 0.0 ], [ 6.484867, 62.473383, 0.0 ], [ 6.484892, 62.473294, 0.0 ], [ 6.485109, 62.473217, 0.0 ], [ 6.485135, 62.473128, 0.0 ], [ 6.48516, 62.47304, 0.0 ], [ 6.485186, 62.472951, 0.0 ], [ 6.485211, 62.472862, 0.0 ], [ 6.485237, 62.472773, 0.0 ], [ 6.485454, 62.472696, 0.0 ], [ 6.485671, 62.472619, 0.0 ], [ 6.485888, 62.472542, 0.0 ], [ 6.486106, 62.472465, 0.0 ], [ 6.486323, 62.472388, 0.0 ], [ 6.48654, 62.472311, 0.0 ], [ 6.486757, 62.472234, 0.0 ], [ 6.486975, 62.472157, 0.0 ], [ 6.487166, 62.472169, 0.0 ], [ 6.487384, 62.472092, 0.0 ], [ 6.487601, 62.472015, 0.0 ], [ 6.487818, 62.471938, 0.0 ], [ 6.488035, 62.471861, 0.0 ], [ 6.488253, 62.471784, 0.0 ] ] } },
{ "type": "Feature", "id": "39", "properties": { "_id": 40, "width": "78.18", "depth": "34.57", "manning_n": "0.108" }, "geometry": { "type": "LineString", "coordinates": [ [ 6.488986, 62.475432, 0.0 ], [ 6.489178, 62.475364, 0.0 ], [ 6.489395, 62.475287, 0.0 ], [ 6.489421, 62.475198, 0.0 ], [ 6.489638, 62.475121, 0.0 ], [ 6.489855, 62.475044, 0.0 ], [ 6.489881, 62.474956, 0.0 ], [ 6.489906, 62.474867, 0.0 ], [ 6.490123, 62.47479, 0.0 ] ] } },
{ "type": "Feature", "id": "40", "properties": { "_id": 41, "width": "26.3", "depth": "46.64", "manning_n": "0.2635" }, "geometry": { "type": "LineString", "coordinates": [ [ 6.453837, 62.47879, 0.0 ], [ 6.45367, 62.478689, 0.0 ], [ 6.453619, 62.478658, 0.0 ] ] } },
{ "type": "Feature", "id": "41", "properties": { "_id": 42, "width": "98.82", "depth": "30.84", "manning_n": "0.8746" }, "geometry": { "type": "LineString", "coordinates": [ [ 6.431726, 62.480316, 0.0 ], [ 6.431751, 62.480227, 0.0 ], [ 6.431777, 62.480138, 0.0 ], [ 6.431611, 62.480037, 0.0 ], [ 6.431636, 62.479949, 0.0 ], [ 6.431662, 62.47986, 0.0 ], [ 6.431688, 62.479771, 0.0 ], [ 6.431713, 62.479682, 0.0 ], [ 6.431547, 62.479582, 0.0 ], [ 6.431573, 62.479493, 0.0 ], [ 6.431407, 62.479392, 0.0 ], [ 6.431432, 62.479304, 0.0 ], [ 6.431458, 62.479215, 0.0 ], [ 6.431292, 62.479114, 0.0 ], [ 6.431125, 62.479014, 0.0 ], [ 6.430959, 62.478913, 0.0 ], [ 6.430793, 62.478812, 0.0 ], [ 6.430627, 62.478712, 0.0 ], [ 6.430409, 62.478789, 0.0 ], [ 6.430243, 62.478688, 0.0 ], [ 6.430052, 62.478676, 0.0 ], [ 6.429834, 62.478753, 0.0 ], [ 6.429642, 62.478741, 0.0 ], [ 6.429476, 62.478641, 0.0 ], [ 6.42931, 62.47854, 0.0 ], [ 6.429144, 62.478439, 0.0 ], [ 6.429169, 62.478351, 0.0 ], [ 6.429387, 62.478274, 0.0 ], [ 6.429412, 62.478185, 0.0 ], [ 6.429438, 62.478096, 0.0 ], [ 6.429464, 62.478007, 0.0 ], [ 6.429681, 62.477931, 0.0 ], [ 6.429515, 62.47783, 0.0 ], [ 6.429541, 62.477741, 0.0 ], [ 6.429758, 62.477664, 0.0 ], [ 6.429784, 62.477576, 0.0 ], [ 6.429809, 62.477487, 0.0 ], [ 6.429643, 62.477386, 0.0 ], [ 6.429451, 62.477374, 0.0 ], [ 6.429309, 62.477288, 0.0 ] ] } },
{ "type": "Feature", "id": "42", "properties": { "_id": 43, "width": "61.98", "depth": "9.02", "manning_n": "0.1551" }, "geometry": { "type": "LineString", "coordinates": [ [ 6.444783, 62.4804, 0.0 ], [ 6.444616, 62.480299, 0.0 ], [ 6.44445, 62.480198, 0.0 ], [ 6.444258, 62.480186, 0.0 ], [ 6.444041, 62.480263, 0.0 ], [ 6.443849, 62.480252, 0.0 ], [ 6.443632, 62.480328, 0.0 ], [ 6.44344, 62.480317, 0.0 ], [ 6.443222, 62.480394, 0.0 ], [ 6.443031, 62.480382, 0.0 ], [ 6.442839, 62.48037, 0.0 ], [ 6.442647, 62.480358, 0.0 ], [ 6.442455, 62.480346, 0.0 ], [ 6.442263, 62.480334, 0.0 ], [ 6.442071, 62.480322, 0.0 ], [ 6.44188, 62.480311, 0.0 ], [ 6.441688, 62.480299, 0.0 ], [ 6.441496, 62.480287, 0.0 ], [ 6.441304, 62.480275, 0.0 ], [ 6.441138, 62.480174, 0.0 ], [ 6.440946, 62.480163, 0.0 ], [ 6.440754, 62.480151, 0.0 ], [ 6.440562, 62.480139, 0.0 ], [ 6.440345, 62.480216, 0.0 ], [ 6.440153, 62.480204, 0.0 ], [ 6.439961, 62.480192, 0.0 ], [ 6.439744, 62.480269, 0.0 ], [ 6.439578, 62.480168, 0.0 ], [ 6.439386, 62.480157, 0.0 ], [ 6.43922, 62.480056, 0.0 ], [ 6.439054, 62.479955, 0.0 ], [ 6.438887, 62.479855, 0.0 ], [ 6.438696, 62.479843, 0.0 ], [ 6.438504, 62.479831, 0.0 ], [ 6.438337, 62.47973, 0.0 ], [ 6.438146, 62.479719, 0.0 ], [ 6.437979, 62.479618, 0.0 ], [ 6.437813, 62.479517, 0.0 ], [ 6.437621, 62.479506, 0.0 ], [ 6.43743, 62.479494, 0.0 ], [ 6.437263, 62.479393, 0.0 ], [ 6.437097, 62.479292, 0.0 ], [ 6.437123, 62.479204, 0.0 ], [ 6.436957, 62.479103, 0.0 ], [ 6.43679, 62.479002, 0.0 ], [ 6.436816, 62.478914, 0.0 ], [ 6.436842, 62.478825, 0.0 ], [ 6.436867, 62.478736, 0.0 ], [ 6.436893, 62.478647, 0.0 ], [ 6.436919, 62.478559, 0.0 ], [ 6.436944, 62.47847, 0.0 ], [ 6.43697, 62.478381, 0.0 ], [ 6.436995, 62.478292, 0.0 ], [ 6.436829, 62.478192, 0.0 ], [ 6.436663, 62.478091, 0.0 ], [ 6.436497, 62.477991, 0.0 ], [ 6.436331, 62.47789, 0.0 ], [ 6.436164, 62.477789, 0.0 ], [ 6.435998, 62.477689, 0.0 ], [ 6.436024, 62.4776, 0.0 ], [ 6.436049, 62.477511, 0.0 ], [ 6.436014, 62.47749, 0.0 ] ] } },
{ "type": "Feature", "id": "43", "properties": { "_id": 44, "width": "67.27", "depth": "20.9", "manning_n": "0.2046" }, "geometry": { "type": "LineString", "coordinates": [ [ 6.42051, 62.480615, 0.0 ], [ 6.420318, 62.480604, 0.0 ], [ 6.420126, 62.480592, 0.0 ], [ 6.419935, 62.48058, 0.0 ], [ 6.419743, 62.480568, 0.0 ], [ 6.419551, 62.480556, 0.0 ], [ 6.419334, 62.480633, 0.0 ], [ 6.419142, 62.480621, 0.0 ], [ 6.41895, 62.480609, 0.0 ], [ 6.418758, 62.480597, 0.0 ], [ 6.418592, 62.480497, 0.0 ], [ 6.418426, 62.480396, 0.0 ], [ 6.418451, 62.480307, 0.0 ], [ 6.418285, 62.480207, 0.0 ], [ 6.418119, 62.480106, 0.0 ], [ 6.417953, 62.480005, 0.0 ], [ 6.417979, 62.479917, 0.0 ], [ 6.418004, 62.479828, 0.0 ], [ 6.41803, 62.479739, 0.0 ], [ 6.418056, 62.47965, 0.0 ], [ 6.418081, 62.479562, 0.0 ], [ 6.418107, 62.479473, 0.0 ], [ 6.417941, 62.479372, 0.0 ], [ 6.417967, 62.479283, 0.0 ], [ 6.417992, 62.479195, 0.0 ], [ 6.417826, 62.479094, 0.0 ], [ 6.417852, 62.479005, 0.0 ], [ 6.417877, 62.478917, 0.0 ], [ 6.417903, 62.478828, 0.0 ], [ 6.417929, 62.478739, 0.0 ], [ 6.417955, 62.47865, 0.0 ], [ 6.41798, 62.478562, 0.0 ], [ 6.418006, 62.478473, 0.0 ], [ 6.418032, 62.478384, 0.0 ], [ 6.418057, 62.478295, 0.0 ], [ 6.418275, 62.478218, 0.0 ], [ 6.418492, 62.478142, 0.0 ], [ 6.418518, 62.478053, 0.0 ], [ 6.418543, 62.477964, 0.0 ], [ 6.418569, 62.477875, 0.0 ], [ 6.418595, 62.477787, 0.0 ], [ 6.418812, 62.47771, 0.0 ], [ 6.418838, 62.477621, 0.0 ], [ 6.419055, 62.477544, 0.0 ], [ 6.419247, 62.477556, 0.0 ], [ 6.419465, 62.477479, 0.0 ], [ 6.419682, 62.477402, 0.0 ], [ 6.419516, 62.477301, 0.0 ], [ 6.419449, 62.477261, 0.0 ] ] } },
{ "type": "Feature", "id": "44", "properties": { "_id": 45, "width": "83.76", "depth": "45.57", "manning_n": "0.5048" }, "geometry": { "type": "LineString", "coordinates": [ [ 6.4927, 62.476016, 0.0 ], [ 6.492721, 62.475943, 0.0 ], [ 6.492554, 62.475842, 0.0 ], [ 6.49258, 62.475754, 0.0 ], [ 6.492797, 62.475677, 0.0 ], [ 6.493014, 62.4756, 0.0 ], [ 6.49304, 62.475511, 0.0 ], [ 6.493065, 62.475422, 0.0 ], [ 6.493091, 62.475333, 0.0 ], [ 6.493116, 62.475245, 0.0 ], [ 6.493333, 62.475168, 0.0 ], [ 6.493551, 62.475091, 0.0 ], [ 6.493768, 62.475014, 0.0 ], [ 6.493934, 62.475114, 0.0 ], [ 6.494126, 62.475126, 0.0 ], [ 6.494318, 62.475138, 0.0 ], [ 6.49451, 62.475149, 0.0 ], [ 6.494727, 62.475072, 0.0 ], [ 6.494752, 62.474984, 0.0 ], [ 6.49497, 62.474907, 0.0 ], [ 6.495187, 62.47483, 0.0 ], [ 6.495212, 62.474741, 0.0 ], [ 6.49543, 62.474664, 0.0 ], [ 6.495621, 62.474676, 0.0 ], [ 6.495839, 62.474599, 0.0 ], [ 6.496056, 62.474522, 0.0 ], [ 6.496248, 62.474533, 0.0 ], [ 6.496465, 62.474456, 0.0 ], [ 6.496657, 62.474468, 0.0 ], [ 6.496874, 62.474391, 0.0 ], [ 6.497066, 62.474403, 0.0 ], [ 6.497258, 62.474415, 0.0 ], [ 6.497449, 62.474427, 0.0 ], [ 6.497667, 62.47435, 0.0 ], [ 6.497858, 62.474361, 0.0 ], [ 6.49805, 62.474373, 0.0 ], [ 6.498242, 62.474385, 0.0 ], [ 6.498434, 62.474397, 0.0 ], [ 6.498651, 62.47432, 0.0 ], [ 6.498843, 62.474331, 0.0 ], [ 6.499035, 62.474343, 0.0 ], [ 6.499227, 62.474355, 0.0 ], [ 6.499393, 62.474455, 0.0 ], [ 6.499559, 62.474556, 0.0 ], [ 6.499751, 62.474568, 0.0 ] ] } },
{ "type": "Feature", "id": "45", "properties": { "_id": 46, "width": "56.88", "depth": "8.41", "manning_n": "0.3015" }, "geometry": { "type": "LineString", "coordinates": [ [ 6.503812, 62.476797, 0.0 ], [ 6.504013, 62.476726, 0.0 ], [ 6.504038, 62.476637, 0.0 ], [ 6.504256, 62.47656, 0.0 ], [ 6.504281, 62.476472, 0.0 ], [ 6.504306, 62.476383, 0.0 ], [ 6.50414, 62.476282, 0.0 ], [ 6.504165, 62.476193, 0.0 ], [ 6.504191, 62.476105, 0.0 ], [ 6.504216, 62.476016, 0.0 ], [ 6.504242, 62.475927, 0.0 ], [ 6.504075, 62.475827, 0.0 ], [ 6.504101, 62.475738, 0.0 ], [ 6.504126, 62.475649, 0.0 ], [ 6.504151, 62.47556, 0.0 ], [ 6.503985, 62.47546, 0.0 ], [ 6.50401, 62.475371, 0.0 ], [ 6.503844, 62.47527, 0.0 ], [ 6.503678, 62.47517, 0.0 ], [ 6.503511, 62.475069, 0.0 ], [ 6.503537, 62.474981, 0.0 ], [ 6.503562, 62.474892, 0.0 ], [ 6.503587, 62.474803, 0.0 ], [ 6.503613, 62.474714, 0.0 ], [ 6.503638, 62.474625, 0.0 ], [ 6.503856, 62.474548, 0.0 ], [ 6.503881, 62.47446, 0.0 ], [ 6.504098, 62.474383, 0.0 ], [ 6.504315, 62.474306, 0.0 ], [ 6.504341, 62.474217, 0.0 ], [ 6.504558, 62.47414, 0.0 ], [ 6.504775, 62.474063, 0.0 ], [ 6.504992, 62.473986, 0.0 ], [ 6.50521, 62.473909, 0.0 ] ] } },
{ "type": "Feature", "id": "46", "properties": { "_id": 47, "width": "14.76", "depth": "39.28", "manning_n": "0.6581" }, "geometry": { "type": "LineString", "coordinates": [ [ 6.536623, 62.477526, 0.0 ], [ 6.536789, 62.477467, 0.0 ], [ 6.537006, 62.47739, 0.0 ], [ 6.537198, 62.477402, 0.0 ], [ 6.537415, 62.477324, 0.0 ], [ 6.537633, 62.477247, 0.0 ], [ 6.53785, 62.47717, 0.0 ], [ 6.538067, 62.477093, 0.0 ], [ 6.538259, 62.477105, 0.0 ], [ 6.538451, 62.477117, 0.0 ], [ 6.538642, 62.477128, 0.0 ], [ 6.53886, 62.477051, 0.0 ], [ 6.539077, 62.476974, 0.0 ], [ 6.539269, 62.476986, 0.0 ], [ 6.53946, 62.476998, 0.0 ], [ 6.539678, 62.476921, 0.0 ], [ 6.53987, 62.476932, 0.0 ], [ 6.540061, 62.476944, 0.0 ], [ 6.540279, 62.476867, 0.0 ], [ 6.54047, 62.476879, 0.0 ], [ 6.540688, 62.476802, 0.0 ], [ 6.540905, 62.476725, 0.0 ], [ 6.541122, 62.476647, 0.0 ], [ 6.541147, 62.476559, 0.0 ], [ 6.541364, 62.476482, 0.0 ], [ 6.541556, 62.476493, 0.0 ], [ 6.541773, 62.476416, 0.0 ], [ 6.54199, 62.476339, 0.0 ], [ 6.542016, 62.47625, 0.0 ], [ 6.542233, 62.476173, 0.0 ], [ 6.54245, 62.476096, 0.0 ], [ 6.542475, 62.476007, 0.0 ], [ 6.542501, 62.475919, 0.0 ], [ 6.542526, 62.47583, 0.0 ], [ 6.542551, 62.475741, 0.0 ], [ 6.542576, 62.475652, 0.0 ], [ 6.542602, 62.475564, 0.0 ], [ 6.542627, 62.475475, 0.0 ], [ 6.542652, 62.475386, 0.0 ], [ 6.542678, 62.475297, 0.0 ], [ 6.542703, 62.475208, 0.0 ], [ 6.54292, 62.475131, 0.0 ] ] } },
{ "type": "Feature", "id": "47", "properties": { "_id": 48, "width": "24.48", "depth": "8.13", "manning_n": "0.9816" }, "geometry": { "type": "LineString", "coordinates": [ [ 6.530296, 62.483122, 0.0 ], [ 6.529912, 62.483099, 0.0 ], [ 6.52972, 62.483087, 0.0 ], [ 6.529503, 62.483164, 0.0 ], [ 6.529336, 62.483064, 0.0 ], [ 6.529144, 62.483052, 0.0 ], [ 6.528927, 62.483129, 0.0 ], [ 6.528735, 62.483117, 0.0 ], [ 6.528569, 62.483017, 0.0 ], [ 6.528402, 62.482916, 0.0 ], [ 6.528427, 62.482827, 0.0 ], [ 6.528261, 62.482727, 0.0 ], [ 6.528094, 62.482626, 0.0 ], [ 6.527928, 62.482526, 0.0 ], [ 6.527736, 62.482514, 0.0 ], [ 6.527569, 62.482414, 0.0 ], [ 6.527377, 62.482402, 0.0 ], [ 6.527186, 62.48239, 0.0 ], [ 6.526994, 62.482378, 0.0 ], [ 6.526802, 62.482367, 0.0 ], [ 6.526635, 62.482266, 0.0 ], [ 6.526443, 62.482254, 0.0 ], [ 6.526252, 62.482243, 0.0 ], [ 6.52606, 62.482231, 0.0 ], [ 6.525893, 62.482131, 0.0 ], [ 6.525701, 62.482119, 0.0 ], [ 6.525535, 62.482018, 0.0 ], [ 6.525343, 62.482007, 0.0 ], [ 6.525151, 62.481995, 0.0 ], [ 6.525105, 62.481967, 0.0 ] ] } },
{ "type": "Feature", "id": "48", "properties": { "_id": 49, "width": "88.38", "depth": "42.93", "manning_n": "0.9372" }, "geometry": { "type": "LineString", "coordinates": [ [ 6.524963, 62.483338, 0.0 ], [ 6.52518, 62.483261, 0.0 ], [ 6.525013, 62.483161, 0.0 ], [ 6.524821, 62.483149, 0.0 ], [ 6.524655, 62.483048, 0.0 ], [ 6.524463, 62.483037, 0.0 ], [ 6.524271, 62.483025, 0.0 ], [ 6.524079, 62.483013, 0.0 ], [ 6.523913, 62.482913, 0.0 ], [ 6.523746, 62.482812, 0.0 ], [ 6.523772, 62.482723, 0.0 ], [ 6.523797, 62.482635, 0.0 ], [ 6.523822, 62.482546, 0.0 ], [ 6.524039, 62.482469, 0.0 ], [ 6.524065, 62.48238, 0.0 ], [ 6.52409, 62.482291, 0.0 ], [ 6.524116, 62.482202, 0.0 ], [ 6.523949, 62.482102, 0.0 ], [ 6.523815, 62.48202, 0.0 ] ] } },
{ "type": "Feature", "id": "49", "properties": { "_id": 50, "width": "50.84", "depth": "49.6", "manning_n": "0.4292" }, "geometry": { "type": "LineString", "coordinates": [ [ 6.52224, 62.483985, 0.0 ], [ 6.522073, 62.483884, 0.0 ], [ 6.521907, 62.483784, 0.0 ], [ 6.52174, 62.483683, 0.0 ], [ 6.521766, 62.483594, 0.0 ], [ 6.521983, 62.483517, 0.0 ], [ 6.522175, 62.483529, 0.0 ], [ 6.522392, 62.483452, 0.0 ], [ 6.522225, 62.483352, 0.0 ], [ 6.522034, 62.48334, 0.0 ], [ 6.521842, 62.483328, 0.0 ], [ 6.52165, 62.483316, 0.0 ], [ 6.521458, 62.483305, 0.0 ], [ 6.521266, 62.483293, 0.0 ], [ 6.521074, 62.483281, 0.0 ], [ 6.520882, 62.483269, 0.0 ], [ 6.520665, 62.483346, 0.0 ], [ 6.520473, 62.483335, 0.0 ], [ 6.520281, 62.483323, 0.0 ], [ 6.520089, 62.483311, 0.0 ], [ 6.519898, 62.483299, 0.0 ], [ 6.519706, 62.483288, 0.0 ], [ 6.519514, 62.483276, 0.0 ], [ 6.519322, 62.483264, 0.0 ], [ 6.51913, 62.483252, 0.0 ], [ 6.518938, 62.483241, 0.0 ], [ 6.518746, 62.483229, 0.0 ], [ 6.51858, 62.483128, 0.0 ], [ 6.518388, 62.483117, 0.0 ], [ 6.518196, 62.483105, 0.0 ], [ 6.518004, 62.483093, 0.0 ], [ 6.517812, 62.483082, 0.0 ], [ 6.51762, 62.48307, 0.0 ], [ 6.517428, 62.483058, 0.0 ], [ 6.517237, 62.483046, 0.0 ], [ 6.51707, 62.482946, 0.0 ], [ 6.516853, 62.483023, 0.0 ], [ 6.516661, 62.483011, 0.0 ], [ 6.516469, 62.482999, 0.0 ], [ 6.516277, 62.482988, 0.0 ], [ 6.516085, 62.482976, 0.0 ], [ 6.515893, 62.482964, 0.0 ], [ 6.515702, 62.482952, 0.0 ], [ 6.515535, 62.482852, 0.0 ], [ 6.515343, 62.48284, 0.0 ], [ 6.515184, 62.482744, 0.0 ] ] } },
{ "type": "Feature", "id": "50", "properties": { "_id": 51, "width": "90.05", "depth": "10.06", "manning_n": "0.6962" }, "geometry": { "type": "LineString", "coordinates": [ [ 6.535632, 62.484261 ], [ 6.53544, 62.484249 ], [ 6.535274, 62.484149 ], [ 6.535299, 62.48406 ], [ 6.535133, 62.48396 ], [ 6.534966, 62.483859 ], [ 6.534799, 62.483759 ], [ 6.534608, 62.483747 ], [ 6.534441, 62.483646 ], [ 6.534249, 62.483635 ], [ 6.534057, 62.483623 ], [ 6.533865, 62.483611 ], [ 6.533673, 62.4836 ], [ 6.533507, 62.483499 ], [ 6.53329, 62.483576 ], [ 6.533123, 62.483476 ], [ 6.532931, 62.483464 ], [ 6.532739, 62.483452 ], [ 6.532547, 62.48344 ], [ 6.532381, 62.48334 ], [ 6.532189, 62.483328 ], [ 6.531997, 62.483317 ], [ 6.531831, 62.483216 ], [ 6.531639, 62.483204 ], [ 6.531447, 62.483193 ], [ 6.531255, 62.483181 ], [ 6.531063, 62.483169 ], [ 6.530871, 62.483157 ], [ 6.530679, 62.483146 ], [ 6.530296, 62.483122 ] ] } },
{ "type": "Feature", "id": "51", "properties": { "_id": 52, "width": "53.77", "depth": "5.72", "manning_n": "0.7287" }, "geometry": { "type": "LineString", "coordinates": [ [ 6.503057, 62.48552, 0.0 ], [ 6.502673, 62.485497, 0.0 ], [ 6.502507, 62.485396, 0.0 ], [ 6.50234, 62.485295, 0.0 ], [ 6.502174, 62.485195, 0.0 ], [ 6.502199, 62.485106, 0.0 ], [ 6.502224, 62.485017, 0.0 ], [ 6.502058, 62.484917, 0.0 ], [ 6.502083, 62.484828, 0.0 ], [ 6.502109, 62.484739, 0.0 ], [ 6.502134, 62.484651, 0.0 ], [ 6.50216, 62.484562, 0.0 ], [ 6.502377, 62.484485, 0.0 ], [ 6.502402, 62.484396, 0.0 ], [ 6.502428, 62.484307, 0.0 ], [ 6.502453, 62.484218, 0.0 ], [ 6.502287, 62.484118, 0.0 ], [ 6.502312, 62.484029, 0.0 ], [ 6.502194, 62.483958, 0.0 ] ] } },
{ "type": "Feature", "id": "52", "properties": { "_id": 53, "width": "78.36", "depth": "27.11", "manning_n": "0.7389" }, "geometry": { "type": "LineString", "coordinates": [ [ 6.546474, 62.486639, 0.0 ], [ 6.546307, 62.486538, 0.0 ], [ 6.546141, 62.486438, 0.0 ], [ 6.545974, 62.486337, 0.0 ], [ 6.545999, 62.486249, 0.0 ], [ 6.545833, 62.486148, 0.0 ], [ 6.545666, 62.486048, 0.0 ], [ 6.545474, 62.486036, 0.0 ], [ 6.545282, 62.486024, 0.0 ], [ 6.545116, 62.485924, 0.0 ], [ 6.544949, 62.485823, 0.0 ], [ 6.544782, 62.485723, 0.0 ], [ 6.54459, 62.485711, 0.0 ], [ 6.544399, 62.485699, 0.0 ], [ 6.544207, 62.485688, 0.0 ], [ 6.544015, 62.485676, 0.0 ], [ 6.543823, 62.485664, 0.0 ], [ 6.543631, 62.485653, 0.0 ], [ 6.543464, 62.485552, 0.0 ], [ 6.543298, 62.485452, 0.0 ], [ 6.543131, 62.485351, 0.0 ], [ 6.542939, 62.485339, 0.0 ], [ 6.542773, 62.485239, 0.0 ], [ 6.542606, 62.485138, 0.0 ], [ 6.542439, 62.485038, 0.0 ], [ 6.542273, 62.484937, 0.0 ], [ 6.542081, 62.484926, 0.0 ], [ 6.541889, 62.484914, 0.0 ], [ 6.541722, 62.484814, 0.0 ], [ 6.541556, 62.484713, 0.0 ], [ 6.541389, 62.484613, 0.0 ], [ 6.541197, 62.484601, 0.0 ], [ 6.541005, 62.484589, 0.0 ], [ 6.540814, 62.484577, 0.0 ], [ 6.540622, 62.484566, 0.0 ], [ 6.540455, 62.484465, 0.0 ], [ 6.540672, 62.484388, 0.0 ], [ 6.540698, 62.484299, 0.0 ], [ 6.540723, 62.484211, 0.0 ], [ 6.540748, 62.484122, 0.0 ], [ 6.540965, 62.484045, 0.0 ], [ 6.540991, 62.483956, 0.0 ], [ 6.541208, 62.483879, 0.0 ], [ 6.541233, 62.48379, 0.0 ], [ 6.541067, 62.48369, 0.0 ], [ 6.541092, 62.483601, 0.0 ], [ 6.541117, 62.483512, 0.0 ], [ 6.541143, 62.483423, 0.0 ], [ 6.541168, 62.483334, 0.0 ], [ 6.541193, 62.483246, 0.0 ], [ 6.541051, 62.48316, 0.0 ] ] } },
{ "type": "Feature", "id": "53", "properties": { "_id": 54, "width": "21.41", "depth": "31.27", "manning_n": "0.1984" }, "geometry": { "type": "MultiLineString", "coordinates": [ [ [ 6.403055, 62.472125, 0.0 ], [ 6.402889, 62.472025, 0.0 ], [ 6.402722, 62.471924, 0.0 ], [ 6.402556, 62.471823, 0.0 ], [ 6.40239, 62.471723, 0.0 ], [ 6.40232, 62.47168, 0.0 ] ], [ [ 6.402157, 62.471618, 0.0 ], [ 6.402033, 62.47161, 0.0 ], [ 6.401875, 62.471514, 0.0 ] ], [ [ 6.399728, 62.470654, 0.0 ], [ 6.39958, 62.470645, 0.0 ], [ 6.399414, 62.470544, 0.0 ], [ 6.399248, 62.470443, 0.0 ], [ 6.399056, 62.470431, 0.0 ], [ 6.398902, 62.470338, 0.0 ] ] ] } },
{ "type": "Feature", "id": "54", "properties": { "_id": 55, "width": "52.48", "depth": "21.46", "manning_n": "0.9532" }, "geometry": { "type": "MultiLineString", "coordinates": [ [ [ 6.410719, 62.476666, 0.0 ], [ 6.410937, 62.476589, 0.0 ], [ 6.410963, 62.476501, 0.0 ], [ 6.410988, 62.476412, 0.0 ], [ 6.411014, 62.476323, 0.0 ], [ 6.41104, 62.476234, 0.0 ], [ 6.411257, 62.476157, 0.0 ], [ 6.411283, 62.476069, 0.0 ], [ 6.4115, 62.475992, 0.0 ], [ 6.411718, 62.475915, 0.0 ], [ 6.411935, 62.475838, 0.0 ], [ 6.412153, 62.475761, 0.0 ], [ 6.41237, 62.475684, 0.0 ], [ 6.412588, 62.475607, 0.0 ], [ 6.412805, 62.475531, 0.0 ], [ 6.412821, 62.475477, 0.0 ] ], [ [ 6.411466, 62.474615, 0.0 ], [ 6.411336, 62.474536, 0.0 ], [ 6.411221, 62.474466, 0.0 ] ], [ [ 6.411122, 62.474432, 0.0 ], [ 6.410978, 62.474424, 0.0 ], [ 6.410825, 62.474331, 0.0 ] ] ] } },
{ "type": "Feature", "id": "55", "properties": { "_id": 56, "width": "46.2", "depth": "32.24", "manning_n": "0.5151" }, "geometry": { "type": "LineString", "coordinates": [ [ 6.410719, 62.476666 ], [ 6.410336, 62.476642 ], [ 6.41017, 62.476542 ], [ 6.409978, 62.47653 ], [ 6.409812, 62.476429 ], [ 6.40962, 62.476417 ] ] } },
{ "type": "Feature", "id": "56", "properties": { "_id": 57, "width": "83.56", "depth": "16.85", "manning_n": "0.0219" }, "geometry": { "type": "LineString", "coordinates": [ [ 6.409668, 62.47895 ], [ 6.409502, 62.478849 ], [ 6.409527, 62.478761 ], [ 6.409361, 62.47866 ], [ 6.409195, 62.478559 ], [ 6.409029, 62.478459 ], [ 6.409055, 62.47837 ], [ 6.409081, 62.478281 ], [ 6.409106, 62.478192 ], [ 6.409324, 62.478115 ], [ 6.409349, 62.478027 ], [ 6.409375, 62.477938 ], [ 6.409401, 62.477849 ], [ 6.409426, 62.47776 ], [ 6.409644, 62.477684 ], [ 6.40967, 62.477595 ], [ 6.409695, 62.477506 ], [ 6.409721, 62.477417 ], [ 6.409747, 62.477329 ], [ 6.409964, 62.477252 ], [ 6.40999, 62.477163 ], [ 6.410207, 62.477086 ], [ 6.410425, 62.477009 ], [ 6.410451, 62.476921 ], [ 6.410476, 62.476832 ], [ 6.410719, 62.476666 ] ] } },
{ "type": "Feature", "id": "57", "properties": { "_id": 58, "width": "70.74", "depth": "23.87", "manning_n": "0.5486" }, "geometry": { "type": "LineString", "coordinates": [ [ 6.490612, 62.486021, 0.0 ], [ 6.49042, 62.48601, 0.0 ], [ 6.490228, 62.485998, 0.0 ], [ 6.490036, 62.485986, 0.0 ], [ 6.489844, 62.485974, 0.0 ], [ 6.489652, 62.485962, 0.0 ], [ 6.489461, 62.485951, 0.0 ], [ 6.489294, 62.48585, 0.0 ], [ 6.489102, 62.485838, 0.0 ], [ 6.48891, 62.485826, 0.0 ], [ 6.488718, 62.485815, 0.0 ], [ 6.488527, 62.485803, 0.0 ], [ 6.48836, 62.485702, 0.0 ], [ 6.488194, 62.485602, 0.0 ], [ 6.488002, 62.48559, 0.0 ], [ 6.48781, 62.485578, 0.0 ], [ 6.487618, 62.485566, 0.0 ], [ 6.487426, 62.485555, 0.0 ], [ 6.487234, 62.485543, 0.0 ], [ 6.487042, 62.485531, 0.0 ], [ 6.486876, 62.485431, 0.0 ], [ 6.48671, 62.48533, 0.0 ], [ 6.486543, 62.485229, 0.0 ], [ 6.486377, 62.485129, 0.0 ], [ 6.48621, 62.485028, 0.0 ], [ 6.486019, 62.485017, 0.0 ], [ 6.485827, 62.485005, 0.0 ], [ 6.485635, 62.484993, 0.0 ], [ 6.485468, 62.484892, 0.0 ], [ 6.485302, 62.484792, 0.0 ], [ 6.485136, 62.484691, 0.0 ], [ 6.484969, 62.484591, 0.0 ], [ 6.484995, 62.484502, 0.0 ], [ 6.484828, 62.484401, 0.0 ], [ 6.484662, 62.484301, 0.0 ], [ 6.484687, 62.484212, 0.0 ], [ 6.484521, 62.484112, 0.0 ], [ 6.484355, 62.484011, 0.0 ], [ 6.48438, 62.483922, 0.0 ], [ 6.484398, 62.483862, 0.0 ] ] } },
{ "type": "Feature", "id": "58", "properties": { "_id": 59, "width": "75.01", "depth": "49.82", "manning_n": "0.4753" }, "geometry": { "type": "LineString", "coordinates": [ [ 6.571338, 62.485714, 0.0 ], [ 6.571171, 62.485614, 0.0 ], [ 6.570979, 62.485602, 0.0 ], [ 6.570812, 62.485502, 0.0 ], [ 6.57062, 62.48549, 0.0 ], [ 6.570454, 62.485389, 0.0 ], [ 6.570262, 62.485378, 0.0 ], [ 6.57007, 62.485366, 0.0 ], [ 6.569903, 62.485266, 0.0 ], [ 6.569736, 62.485165, 0.0 ], [ 6.569545, 62.485153, 0.0 ], [ 6.569378, 62.485053, 0.0 ], [ 6.569186, 62.485041, 0.0 ], [ 6.568994, 62.48503, 0.0 ], [ 6.568827, 62.484929, 0.0 ], [ 6.568661, 62.484829, 0.0 ], [ 6.568469, 62.484817, 0.0 ], [ 6.568277, 62.484805, 0.0 ], [ 6.568085, 62.484794, 0.0 ], [ 6.567933, 62.484702, 0.0 ] ] } },
{ "type": "Feature", "id": "59", "properties": { "_id": 60, "width": "88.2", "depth": "33.28", "manning_n": "0.3566" }, "geometry": { "type": "MultiLineString", "coordinates": [ [ [ 6.558388, 62.487997, 0.0 ], [ 6.558413, 62.487908, 0.0 ], [ 6.558439, 62.48782, 0.0 ], [ 6.558272, 62.487719, 0.0 ], [ 6.558105, 62.487619, 0.0 ], [ 6.557913, 62.487607, 0.0 ], [ 6.557747, 62.487507, 0.0 ], [ 6.55758, 62.487406, 0.0 ], [ 6.557413, 62.487306, 0.0 ], [ 6.557439, 62.487217, 0.0 ], [ 6.557656, 62.48714, 0.0 ], [ 6.557873, 62.487063, 0.0 ], [ 6.55809, 62.486986, 0.0 ], [ 6.558115, 62.486897, 0.0 ], [ 6.557949, 62.486796, 0.0 ], [ 6.557757, 62.486785, 0.0 ], [ 6.55759, 62.486684, 0.0 ], [ 6.557807, 62.486607, 0.0 ], [ 6.557641, 62.486507, 0.0 ], [ 6.557474, 62.486406, 0.0 ], [ 6.557307, 62.486306, 0.0 ], [ 6.557141, 62.486205, 0.0 ], [ 6.556949, 62.486193, 0.0 ], [ 6.556757, 62.486182, 0.0 ], [ 6.556565, 62.48617, 0.0 ], [ 6.556373, 62.486158, 0.0 ], [ 6.556206, 62.486058, 0.0 ], [ 6.555989, 62.486135, 0.0 ], [ 6.555772, 62.486212, 0.0 ], [ 6.555555, 62.486289, 0.0 ], [ 6.555388, 62.486189, 0.0 ], [ 6.555222, 62.486088, 0.0 ], [ 6.555055, 62.485988, 0.0 ], [ 6.554863, 62.485976, 0.0 ], [ 6.554671, 62.485964, 0.0 ], [ 6.554504, 62.485864, 0.0 ], [ 6.554338, 62.485763, 0.0 ], [ 6.554171, 62.485663, 0.0 ], [ 6.553979, 62.485651, 0.0 ], [ 6.553787, 62.48564, 0.0 ], [ 6.553595, 62.485628, 0.0 ], [ 6.553429, 62.485527, 0.0 ], [ 6.553237, 62.485516, 0.0 ], [ 6.553045, 62.485504, 0.0 ], [ 6.552878, 62.485403, 0.0 ], [ 6.552686, 62.485392, 0.0 ], [ 6.552494, 62.48538, 0.0 ], [ 6.552303, 62.485368, 0.0 ], [ 6.552136, 62.485268, 0.0 ], [ 6.551944, 62.485256, 0.0 ], [ 6.551777, 62.485156, 0.0 ], [ 6.551585, 62.485144, 0.0 ], [ 6.551394, 62.485132, 0.0 ], [ 6.551227, 62.485032, 0.0 ], [ 6.551252, 62.484943, 0.0 ], [ 6.551086, 62.484843, 0.0 ], [ 6.550894, 62.484831, 0.0 ], [ 6.550702, 62.484819, 0.0 ], [ 6.550535, 62.484719, 0.0 ], [ 6.550467, 62.484715, 0.0 ] ], [ [ 6.550144, 62.484778, 0.0 ], [ 6.550126, 62.484784, 0.0 ], [ 6.549934, 62.484772, 0.0 ], [ 6.549742, 62.484761, 0.0 ], [ 6.549595, 62.484672, 0.0 ] ] ] } },
{ "type": "Feature", "id": "60", "properties": { "_id": 61, "width": "21.22", "depth": "17.99", "manning_n": "0.5915" }, "geometry": { "type": "LineString", "coordinates": [ [ 6.579887, 62.492737, 0.0 ], [ 6.579695, 62.492725, 0.0 ], [ 6.579478, 62.492802, 0.0 ], [ 6.579286, 62.492791, 0.0 ], [ 6.579094, 62.492779, 0.0 ], [ 6.578927, 62.492679, 0.0 ], [ 6.578736, 62.492667, 0.0 ], [ 6.578569, 62.492566, 0.0 ], [ 6.578377, 62.492555, 0.0 ], [ 6.57821, 62.492454, 0.0 ], [ 6.578018, 62.492443, 0.0 ], [ 6.577851, 62.492342, 0.0 ], [ 6.577685, 62.492242, 0.0 ], [ 6.577493, 62.49223, 0.0 ], [ 6.577301, 62.492218, 0.0 ], [ 6.577134, 62.492118, 0.0 ], [ 6.576942, 62.492106, 0.0 ], [ 6.57675, 62.492095, 0.0 ], [ 6.576583, 62.491994, 0.0 ], [ 6.576391, 62.491983, 0.0 ], [ 6.576199, 62.491971, 0.0 ], [ 6.576032, 62.49187, 0.0 ], [ 6.575866, 62.49177, 0.0 ], [ 6.575699, 62.49167, 0.0 ], [ 6.575532, 62.491569, 0.0 ], [ 6.575366, 62.491469, 0.0 ], [ 6.575174, 62.491457, 0.0 ], [ 6.575007, 62.491357, 0.0 ], [ 6.574815, 62.491345, 0.0 ], [ 6.574623, 62.491333, 0.0 ], [ 6.574431, 62.491322, 0.0 ], [ 6.574264, 62.491221, 0.0 ], [ 6.574072, 62.491209, 0.0 ], [ 6.57388, 62.491198, 0.0 ], [ 6.573714, 62.491097, 0.0 ], [ 6.573547, 62.490997, 0.0 ], [ 6.57338, 62.490896, 0.0 ], [ 6.573213, 62.490796, 0.0 ], [ 6.573021, 62.490784, 0.0 ], [ 6.572855, 62.490684, 0.0 ], [ 6.572688, 62.490583, 0.0 ], [ 6.572496, 62.490572, 0.0 ], [ 6.572329, 62.490471, 0.0 ], [ 6.572162, 62.490371, 0.0 ], [ 6.571971, 62.490359, 0.0 ], [ 6.571779, 62.490347, 0.0 ], [ 6.571612, 62.490247, 0.0 ], [ 6.57142, 62.490235, 0.0 ], [ 6.571253, 62.490135, 0.0 ], [ 6.571061, 62.490123, 0.0 ], [ 6.570895, 62.490023, 0.0 ], [ 6.570703, 62.490011, 0.0 ], [ 6.570511, 62.489999, 0.0 ], [ 6.570344, 62.489899, 0.0 ], [ 6.570152, 62.489887, 0.0 ], [ 6.569985, 62.489787, 0.0 ], [ 6.569793, 62.489775, 0.0 ], [ 6.569601, 62.489763, 0.0 ], [ 6.569435, 62.489663, 0.0 ], [ 6.569243, 62.489651, 0.0 ], [ 6.569076, 62.489551, 0.0 ], [ 6.568884, 62.489539, 0.0 ], [ 6.568717, 62.489439, 0.0 ], [ 6.568934, 62.489362, 0.0 ], [ 6.568768, 62.489261, 0.0 ], [ 6.568601, 62.489161, 0.0 ], [ 6.568434, 62.48906, 0.0 ], [ 6.568268, 62.48896, 0.0 ], [ 6.568101, 62.488859, 0.0 ], [ 6.567934, 62.488759, 0.0 ], [ 6.567768, 62.488658, 0.0 ], [ 6.567601, 62.488558, 0.0 ], [ 6.567409, 62.488546, 0.0 ], [ 6.567217, 62.488535, 0.0 ], [ 6.56705, 62.488434, 0.0 ], [ 6.566884, 62.488334, 0.0 ], [ 6.566717, 62.488233, 0.0 ], [ 6.566525, 62.488221, 0.0 ], [ 6.566358, 62.488121, 0.0 ], [ 6.566166, 62.488109, 0.0 ], [ 6.566, 62.488009, 0.0 ], [ 6.565833, 62.487908, 0.0 ], [ 6.565666, 62.487808, 0.0 ], [ 6.5655, 62.487707, 0.0 ], [ 6.565333, 62.487607, 0.0 ], [ 6.565166, 62.487507, 0.0 ], [ 6.564974, 62.487495, 0.0 ], [ 6.564782, 62.487483, 0.0 ], [ 6.56459, 62.487472, 0.0 ], [ 6.564424, 62.487371, 0.0 ], [ 6.564232, 62.487359, 0.0 ], [ 6.564065, 62.487259, 0.0 ], [ 6.56409, 62.48717, 0.0 ], [ 6.564116, 62.487081, 0.0 ], [ 6.564333, 62.487004, 0.0 ], [ 6.564166, 62.486904, 0.0 ], [ 6.563999, 62.486803, 0.0 ], [ 6.563833, 62.486703, 0.0 ], [ 6.563641, 62.486691, 0.0 ], [ 6.563474, 62.486591, 0.0 ], [ 6.563282, 62.486579, 0.0 ], [ 6.563115, 62.486479, 0.0 ], [ 6.562924, 62.486467, 0.0 ], [ 6.562732, 62.486455, 0.0 ], [ 6.56254, 62.486443, 0.0 ], [ 6.562348, 62.486432, 0.0 ], [ 6.562156, 62.48642, 0.0 ], [ 6.561939, 62.486497, 0.0 ], [ 6.561747, 62.486486, 0.0 ], [ 6.56158, 62.486385, 0.0 ], [ 6.561413, 62.486285, 0.0 ], [ 6.561439, 62.486196, 0.0 ], [ 6.561464, 62.486107, 0.0 ], [ 6.561489, 62.486018, 0.0 ], [ 6.561323, 62.485918, 0.0 ], [ 6.56154, 62.485841, 0.0 ], [ 6.561565, 62.485752, 0.0 ], [ 6.561782, 62.485675, 0.0 ], [ 6.561615, 62.485574, 0.0 ], [ 6.561641, 62.485486, 0.0 ], [ 6.561666, 62.485397, 0.0 ], [ 6.561499, 62.485296, 0.0 ], [ 6.561333, 62.485196, 0.0 ], [ 6.561358, 62.485107, 0.0 ], [ 6.561383, 62.485018, 0.0 ], [ 6.561408, 62.484929, 0.0 ], [ 6.561415, 62.484905, 0.0 ] ] } },
{ "type": "Feature", "id": "61", "properties": { "_id": 62, "width": "57.84", "depth": "36.03", "manning_n": "0.9839" }, "geometry": { "type": "LineString", "coordinates": [ [ 6.508097, 62.485648 ], [ 6.508339, 62.485482 ], [ 6.508531, 62.485494 ], [ 6.508723, 62.485506 ], [ 6.508941, 62.485429 ], [ 6.509158, 62.485352 ], [ 6.509183, 62.485263 ], [ 6.509401, 62.485186 ], [ 6.509592, 62.485198 ], [ 6.509784, 62.48521 ], [ 6.509976, 62.485221 ], [ 6.510193, 62.485144 ], [ 6.510385, 62.485156 ], [ 6.510603, 62.485079 ], [ 6.51082, 62.485002 ], [ 6.511037, 62.484925 ], [ 6.511229, 62.484937 ], [ 6.511421, 62.484949 ], [ 6.511613, 62.48496 ], [ 6.511779, 62.485061 ], [ 6.511754, 62.48515 ], [ 6.511729, 62.485238 ], [ 6.511703, 62.485327 ], [ 6.51187, 62.485428 ], [ 6.512087, 62.485351 ], [ 6.512304, 62.485274 ], [ 6.512522, 62.485197 ], [ 6.512739, 62.48512 ], [ 6.512931, 62.485131 ], [ 6.513123, 62.485143 ], [ 6.513314, 62.485155 ], [ 6.513506, 62.485167 ], [ 6.513698, 62.485178 ] ] } },
{ "type": "Feature", "id": "62", "properties": { "_id": 63, "width": "13.73", "depth": "47.75", "manning_n": "0.0109" }, "geometry": { "type": "LineString", "coordinates": [ [ 6.503057, 62.48552 ], [ 6.503441, 62.485544 ], [ 6.503632, 62.485555 ], [ 6.503824, 62.485567 ], [ 6.504042, 62.48549 ], [ 6.504234, 62.485502 ], [ 6.504451, 62.485425 ], [ 6.504643, 62.485437 ], [ 6.504835, 62.485448 ], [ 6.505027, 62.48546 ], [ 6.505218, 62.485472 ], [ 6.50541, 62.485484 ], [ 6.505602, 62.485495 ], [ 6.505794, 62.485507 ], [ 6.505986, 62.485519 ], [ 6.506178, 62.485531 ], [ 6.50637, 62.485542 ], [ 6.506562, 62.485554 ], [ 6.506753, 62.485566 ], [ 6.506945, 62.485578 ], [ 6.507137, 62.485589 ], [ 6.507329, 62.485601 ], [ 6.507521, 62.485613 ], [ 6.507713, 62.485625 ], [ 6.508097, 62.485648 ] ] } },
{ "type": "Feature", "id": "63", "properties": { "_id": 64, "width": "71.06", "depth": "27.05", "manning_n": "0.8101" }, "geometry": { "type": "LineString", "coordinates": [ [ 6.513433, 62.486788 ], [ 6.513267, 62.486688 ], [ 6.5131, 62.486587 ], [ 6.512934, 62.486486 ], [ 6.512767, 62.486386 ], [ 6.512601, 62.486285 ], [ 6.512409, 62.486274 ], [ 6.512217, 62.486262 ], [ 6.51205, 62.486161 ], [ 6.511884, 62.486061 ], [ 6.511692, 62.486049 ], [ 6.5115, 62.486037 ], [ 6.511308, 62.486026 ], [ 6.511116, 62.486014 ], [ 6.510924, 62.486002 ], [ 6.510732, 62.48599 ], [ 6.510566, 62.48589 ], [ 6.510374, 62.485878 ], [ 6.510182, 62.485866 ], [ 6.509965, 62.485943 ], [ 6.509773, 62.485932 ], [ 6.509581, 62.48592 ], [ 6.509389, 62.485908 ], [ 6.509197, 62.485896 ], [ 6.509031, 62.485796 ], [ 6.508839, 62.485784 ], [ 6.508647, 62.485772 ], [ 6.508455, 62.485761 ], [ 6.508263, 62.485749 ], [ 6.508097, 62.485648 ] ] } },
{ "type": "Feature", "id": "64", "properties": { "_id": 65, "width": "50.04", "depth": "29.89", "manning_n": "0.5386" }, "geometry": { "type": "LineString", "coordinates": [ [ 6.532211, 62.491459 ], [ 6.532237, 62.49137 ], [ 6.532262, 62.491282 ], [ 6.532479, 62.491205 ], [ 6.532505, 62.491116 ], [ 6.53253, 62.491027 ], [ 6.532555, 62.490938 ], [ 6.532581, 62.490849 ], [ 6.532606, 62.490761 ], [ 6.532631, 62.490672 ], [ 6.532657, 62.490583 ], [ 6.532682, 62.490494 ], [ 6.532707, 62.490406 ], [ 6.532733, 62.490317 ], [ 6.532758, 62.490228 ], [ 6.532592, 62.490127 ], [ 6.532425, 62.490027 ], [ 6.532258, 62.489926 ], [ 6.532092, 62.489826 ], [ 6.531925, 62.489725 ], [ 6.531951, 62.489637 ], [ 6.531976, 62.489548 ], [ 6.531809, 62.489447 ], [ 6.531835, 62.489359 ], [ 6.53186, 62.48927 ], [ 6.531693, 62.489169 ], [ 6.531719, 62.489081 ], [ 6.531552, 62.48898 ], [ 6.531577, 62.488891 ], [ 6.531411, 62.488791 ], [ 6.531628, 62.488714 ], [ 6.531462, 62.488613 ], [ 6.531487, 62.488524 ], [ 6.531512, 62.488436 ], [ 6.531538, 62.488347 ], [ 6.531563, 62.488258 ], [ 6.53178, 62.488181 ], [ 6.531806, 62.488092 ], [ 6.531831, 62.488003 ], [ 6.531856, 62.487915 ], [ 6.531882, 62.487826 ], [ 6.531715, 62.487725 ], [ 6.531548, 62.487625 ], [ 6.531574, 62.487536 ], [ 6.531407, 62.487436 ], [ 6.531433, 62.487347 ], [ 6.531458, 62.487258 ], [ 6.531483, 62.487169 ], [ 6.531509, 62.48708 ], [ 6.531342, 62.48698 ], [ 6.531367, 62.486891 ], [ 6.531201, 62.486791 ], [ 6.531034, 62.48669 ], [ 6.530868, 62.48659 ], [ 6.530676, 62.486578 ], [ 6.530484, 62.486566 ], [ 6.530317, 62.486466 ], [ 6.530125, 62.486454 ], [ 6.529959, 62.486353 ], [ 6.529984, 62.486265 ], [ 6.53001, 62.486176 ], [ 6.530035, 62.486087 ], [ 6.53006, 62.485998 ], [ 6.530086, 62.48591 ], [ 6.530111, 62.485821 ], [ 6.530136, 62.485732 ], [ 6.530162, 62.485643 ], [ 6.530187, 62.485554 ], [ 6.530212, 62.485466 ], [ 6.530046, 62.485365 ], [ 6.530071, 62.485276 ], [ 6.530096, 62.485188 ], [ 6.530122, 62.485099 ], [ 6.529955, 62.484998 ], [ 6.529981, 62.48491 ], [ 6.530006, 62.484821 ], [ 6.530223, 62.484744 ], [ 6.530248, 62.484655 ], [ 6.530466, 62.484578 ], [ 6.530491, 62.484489 ], [ 6.530516, 62.4844 ], [ 6.530542, 62.484312 ], [ 6.530567, 62.484223 ], [ 6.530592, 62.484134 ], [ 6.530618, 62.484045 ], [ 6.530835, 62.483968 ], [ 6.530668, 62.483868 ], [ 6.530502, 62.483767 ], [ 6.530527, 62.483678 ], [ 6.530553, 62.48359 ], [ 6.530578, 62.483501 ], [ 6.530603, 62.483412 ], [ 6.530437, 62.483312 ], [ 6.530296, 62.483122 ] ] } },
{ "type": "Feature", "id": "65", "properties": { "_id": 66, "width": "23.08", "depth": "6.21", "manning_n": "0.7017" }, "geometry": { "type": "LineString", "coordinates": [ [ 6.495991, 62.490416 ], [ 6.496208, 62.490339 ], [ 6.4964, 62.490351 ], [ 6.496592, 62.490363 ], [ 6.496784, 62.490375 ], [ 6.497001, 62.490298 ], [ 6.497219, 62.490221 ], [ 6.497411, 62.490232 ], [ 6.497602, 62.490244 ], [ 6.497794, 62.490256 ], [ 6.498012, 62.490179 ], [ 6.498204, 62.490191 ], [ 6.498396, 62.490203 ], [ 6.498613, 62.490126 ], [ 6.498805, 62.490137 ], [ 6.498997, 62.490149 ], [ 6.499189, 62.490161 ], [ 6.499381, 62.490173 ], [ 6.499573, 62.490184 ], [ 6.499764, 62.490196 ], [ 6.499982, 62.490119 ], [ 6.500199, 62.490042 ], [ 6.500416, 62.489965 ], [ 6.500634, 62.489888 ], [ 6.500851, 62.489811 ], [ 6.501043, 62.489823 ], [ 6.50126, 62.489746 ], [ 6.501286, 62.489657 ], [ 6.501503, 62.48958 ], [ 6.501529, 62.489491 ], [ 6.501554, 62.489403 ], [ 6.50158, 62.489314 ], [ 6.501797, 62.489237 ], [ 6.501822, 62.489148 ], [ 6.501848, 62.489059 ], [ 6.501873, 62.48897 ], [ 6.501899, 62.488882 ], [ 6.501924, 62.488793 ], [ 6.501949, 62.488704 ], [ 6.501975, 62.488615 ], [ 6.502, 62.488527 ], [ 6.501834, 62.488426 ], [ 6.501859, 62.488337 ], [ 6.501885, 62.488249 ], [ 6.50191, 62.48816 ], [ 6.501936, 62.488071 ], [ 6.501961, 62.487982 ], [ 6.502178, 62.487905 ], [ 6.50237, 62.487917 ], [ 6.502588, 62.48784 ], [ 6.502779, 62.487852 ], [ 6.502997, 62.487775 ], [ 6.503022, 62.487686 ], [ 6.503048, 62.487597 ], [ 6.503073, 62.487508 ], [ 6.50329, 62.487431 ], [ 6.503316, 62.487343 ], [ 6.503341, 62.487254 ], [ 6.503367, 62.487165 ], [ 6.503392, 62.487076 ], [ 6.503609, 62.486999 ], [ 6.503635, 62.48691 ], [ 6.50366, 62.486822 ], [ 6.503878, 62.486745 ], [ 6.503903, 62.486656 ], [ 6.50412, 62.486579 ], [ 6.504146, 62.48649 ], [ 6.504171, 62.486401 ], [ 6.504197, 62.486313 ], [ 6.504222, 62.486224 ], [ 6.504056, 62.486123 ], [ 6.504081, 62.486034 ], [ 6.503915, 62.485934 ], [ 6.503723, 62.485922 ], [ 6.503556, 62.485822 ], [ 6.503364, 62.48581 ], [ 6.503198, 62.485709 ], [ 6.503057, 62.48552 ] ] } }
]
}
