{
"type": "FeatureCollection",
"name": "BrusdalLake",
"crs": { "type": "name", "properties": { "name": "urn:ogc:def:crs:OGC:1.3:CRS84" } },
"features": [
{ "type": "Feature", "properties": { "id": 317, "area": 7495149.98, "name": "Brusdalsvatnet", "region": "Ålesund" }, "geometry": { "type": "MultiPolygon", "coordinates": [ [ [ [ 6.484482057102738, 62.483832994359872, 0.0 ], [ 6.48487674092293, 62.483759228889674, 0.0 ], [ 6.485850132314853, 62.483722909503292, 0.0 ], [ 6.486222959658758, 62.483675620915491, 0.0 ], [ 6.4875447572623, 62.483654637892215, 0.0 ], [ 6.488423664219617, 62.483589643224256, 0.0 ], [ 6.489583667209443, 62.483378488254068, 0.0 ], [ 6.490177210228643, 62.483279791204154, 0.0 ], [ 6.490475151072361, 62.483230784584997, 0.0 ], [ 6.491524330548948, 62.483187426248207, 0.0 ], [ 6.491903425069006, 62.483068511611734, 0.0 ], [ 6.492011415550333, 62.482935664896978, 0.0 ], [ 6.492335290143811, 62.482779845790944, 0.0 ], [ 6.492932165149378, 62.482602029304886, 0.0 ], [ 6.493260166863717, 62.482625864623451, 0.0 ], [ 6.493406181595219, 62.482736271069719, 0.0 ], [ 6.494144184289621, 62.482731518493026, 0.0 ], [ 6.494815928912899, 62.482824411755352, 0.0 ], [ 6.495408354635027, 62.482933843682268, 0.0 ], [ 6.495691591298288, 62.483028728662326, 0.0 ], [ 6.49627234850724, 62.483048100913081, 0.0 ], [ 6.496846785860227, 62.483139259282964, 0.0 ], [ 6.497390489880653, 62.483140093574249, 0.0 ], [ 6.498111185441588, 62.483341572240612, 0.0 ], [ 6.499463204680464, 62.483653129380954, 0.0 ], [ 6.500000037934429, 62.483829951723337, 0.0 ], [ 6.500011504065072, 62.483833545526494, 0.0 ], [ 6.500587358652946, 62.483906888193033, 0.0 ], [ 6.501065102983321, 62.483996253808613, 0.0 ], [ 6.502466503071504, 62.483949476525929, 0.0 ], [ 6.503054812645621, 62.483879130505422, 0.0 ], [ 6.503448422429289, 62.483814371827592, 0.0 ], [ 6.503783973361603, 62.483748492280625, 0.0 ], [ 6.504132916209867, 62.483521286339943, 0.0 ], [ 6.50455954683564, 62.482828391082904, 0.0 ], [ 6.504848190340263, 62.482626936500886, 0.0 ], [ 6.505090426966508, 62.482514595412418, 0.0 ], [ 6.505929244588621, 62.482466547460305, 0.0 ], [ 6.506215381321604, 62.482292217255505, 0.0 ], [ 6.50651205293329, 62.482225665890461, 0.0 ], [ 6.506851241312856, 62.482114927306093, 0.0 ], [ 6.507856912973419, 62.482159836362698, 0.0 ], [ 6.508387638210374, 62.482313035597294, 0.0 ], [ 6.509225963862685, 62.482498625846141, 0.0 ], [ 6.510092419142063, 62.482585936601794, 0.0 ], [ 6.511004831124164, 62.482584279689767, 0.0 ], [ 6.511443923324763, 62.482672958015449, 0.0 ], [ 6.51202351783701, 62.482701135573613, 0.0 ], [ 6.51252330040105, 62.482763988500572, 0.0 ], [ 6.514307061795289, 62.482786847456865, 0.0 ], [ 6.514613997313707, 62.482811328866305, 0.0 ], [ 6.514885639527626, 62.482832926388909, 0.0 ], [ 6.515178431905425, 62.482811284981288, 0.0 ], [ 6.51518794870615, 62.482694708518309, 0.0 ], [ 6.514844114456923, 62.482634727768428, 0.0 ], [ 6.514265399536468, 62.482588459427404, 0.0 ], [ 6.513865725881219, 62.482491635052696, 0.0 ], [ 6.513967939041024, 62.482430506098623, 0.0 ], [ 6.514361508010803, 62.482365715817068, 0.0 ], [ 6.515223943881287, 62.482497822911284, 0.0 ], [ 6.515806115433343, 62.482499223817165, 0.0 ], [ 6.51605526128182, 62.482539405193613, 0.0 ], [ 6.516412703164715, 62.482540868525135, 0.0 ], [ 6.516695515081915, 62.48254182818058, 0.0 ], [ 6.517556110853443, 62.482458459605134, 0.0 ], [ 6.517408959433903, 62.482366079157195, 0.0 ], [ 6.51590467192676, 62.482249439979611, 0.0 ], [ 6.51567721247206, 62.482182583161887, 0.0 ], [ 6.515141394379182, 62.482092152602135, 0.0 ], [ 6.515032533119222, 62.482000396898634, 0.0 ], [ 6.514744779602702, 62.481959385522508, 0.0 ], [ 6.514603118726473, 62.482028758957355, 0.0 ], [ 6.513489379522485, 62.482116663206583, 0.0 ], [ 6.511062978908618, 62.482118298646043, 0.0 ], [ 6.510292227156263, 62.482050676228084, 0.0 ], [ 6.508938009809893, 62.481532503756718, 0.0 ], [ 6.509081878812581, 62.48143635209739, 0.0 ], [ 6.509849618143873, 62.481306332916766, 0.0 ], [ 6.510630075161314, 62.481257393344862, 0.0 ], [ 6.510644222240829, 62.481258440519298, 0.0 ], [ 6.511555819568215, 62.481327732277947, 0.0 ], [ 6.51192853018432, 62.481280551133835, 0.0 ], [ 6.513440270890628, 62.481307452116191, 0.0 ], [ 6.513727990778188, 62.481348554837581, 0.0 ], [ 6.516353445235134, 62.481287517517231, 0.0 ], [ 6.517030905571244, 62.481308567325527, 0.0 ], [ 6.517115883668465, 62.481220276172358, 0.0 ], [ 6.51751167119195, 62.48112851461736, 0.0 ], [ 6.51834435884492, 62.481152192832468, 0.0 ], [ 6.51832937234534, 62.481331665427547, 0.0 ], [ 6.518433026834392, 62.481486059797916, 0.0 ], [ 6.518619366319944, 62.481579301554184, 0.0 ], [ 6.518765472331467, 62.481689682796102, 0.0 ], [ 6.519254553898486, 62.481644454096802, 0.0 ], [ 6.519736132201043, 62.4816890044819, 0.0 ], [ 6.520226640953356, 62.481625793715544, 0.0 ], [ 6.52070150125027, 62.481646714870095, 0.0 ], [ 6.520821306519075, 62.481659915467169, 0.0 ], [ 6.520932517816789, 62.48168406213496, 0.0 ], [ 6.5210029345363, 62.481725947073329, 0.0 ], [ 6.521024408982904, 62.481779923116704, 0.0 ], [ 6.521100285637504, 62.481821148362769, 0.0 ], [ 6.521293458127165, 62.481895292777786, 0.0 ], [ 6.521447945374651, 62.481981161977728, 0.0 ], [ 6.521565581256544, 62.481990344968459, 0.0 ], [ 6.522179284090261, 62.481996809764475, 0.0 ], [ 6.5223037608301, 62.481984099070843, 0.0 ], [ 6.522608252973361, 62.481882493681745, 0.0 ], [ 6.522720343341766, 62.481857101545465, 0.0 ], [ 6.523094553319673, 62.481866799890028, 0.0 ], [ 6.523211929345164, 62.481889876356291, 0.0 ], [ 6.523525298436425, 62.481982027114846, 0.0 ], [ 6.523640130183276, 62.482005128247387, 0.0 ], [ 6.523769819652564, 62.482011071949373, 0.0 ], [ 6.524108244837938, 62.482081809793335, 0.0 ], [ 6.524403577437171, 62.482181075400383, 0.0 ], [ 6.524522823719466, 62.482183940878151, 0.0 ], [ 6.524630069506505, 62.482159786584234, 0.0 ], [ 6.525014556129539, 62.482022780604808, 0.0 ], [ 6.52507950429413, 62.481977883547316, 0.0 ], [ 6.525254662508227, 62.48190323191686, 0.0 ], [ 6.525255148507523, 62.481847528391903, 0.0 ], [ 6.525191420431631, 62.481797925214963, 0.0 ], [ 6.52510411944762, 62.481757720200356, 0.0 ], [ 6.524993098786783, 62.481739731108213, 0.0 ], [ 6.524754891976132, 62.481734379494945, 0.0 ], [ 6.524650446826231, 62.481711824060248, 0.0 ], [ 6.524566514306066, 62.481668030795589, 0.0 ], [ 6.524515904379799, 62.48161624851069, 0.0 ], [ 6.524556890291834, 62.481568441186923, 0.0 ], [ 6.524686348863027, 62.481559465624464, 0.0 ], [ 6.524796167913086, 62.481547482476344, 0.0 ], [ 6.524971897312393, 62.481512520838123, 0.0 ], [ 6.526425425982899, 62.48153815837685, 0.0 ], [ 6.526767590886323, 62.481625196887357, 0.0 ], [ 6.527499736779546, 62.48169199242232, 0.0 ], [ 6.527701725571122, 62.48183034810512, 0.0 ], [ 6.527888930312641, 62.481914505634471, 0.0 ], [ 6.528275039442004, 62.481939279476663, 0.0 ], [ 6.528961808594925, 62.481852534421812, 0.0 ], [ 6.529642897472215, 62.48182875950495, 0.0 ], [ 6.530652232315232, 62.481828651585502, 0.0 ], [ 6.530843096708018, 62.481867864037945, 0.0 ], [ 6.531578026477642, 62.481898946980827, 0.0 ], [ 6.531924996100504, 62.48187480006581, 0.0 ], [ 6.532289483824083, 62.481849464290747, 0.0 ], [ 6.533842450441922, 62.481741450124652, 0.0 ], [ 6.534294908325482, 62.481668459732603, 0.0 ], [ 6.534681162183907, 62.481693405093573, 0.0 ], [ 6.535152971934497, 62.481854369292968, 0.0 ], [ 6.53569727845145, 62.481846058032808, 0.0 ], [ 6.536126621291368, 62.48205121515133, 0.0 ], [ 6.536527338232317, 62.482139093462344, 0.0 ], [ 6.538307671642369, 62.482906908451092, 0.0 ], [ 6.539962120779576, 62.483088737462495, 0.0 ], [ 6.540985510302717, 62.483151735852978, 0.0 ], [ 6.541946624861293, 62.483267471390747, 0.0 ], [ 6.542095046098643, 62.483350866901752, 0.0 ], [ 6.542771969450744, 62.483380787676552, 0.0 ], [ 6.543361041261169, 62.48353469371699, 0.0 ], [ 6.543642812121047, 62.483647539695134, 0.0 ], [ 6.544718711172942, 62.483783264209599, 0.0 ], [ 6.546171988564115, 62.484051290430223, 0.0 ], [ 6.546550747361663, 62.484165708966707, 0.0 ], [ 6.548099405225299, 62.484453349808341, 0.0 ], [ 6.548969264518445, 62.484495544202382, 0.0 ], [ 6.549614458938596, 62.484677411401378, 0.0 ], [ 6.550000072803818, 62.484750687443459, 0.0 ], [ 6.550187888654904, 62.484786343351324, 0.0 ], [ 6.550442035977814, 62.484763897834171, 0.0 ], [ 6.550488257629129, 62.484674943974611, 0.0 ], [ 6.550137883438236, 62.484453243846211, 0.0 ], [ 6.550094210789482, 62.484272729709893, 0.0 ], [ 6.550246735035829, 62.484068947904959, 0.0 ], [ 6.550714212822658, 62.484050111877984, 0.0 ], [ 6.550870903240581, 62.484035997083012, 0.0 ], [ 6.551457408058275, 62.483982411880767, 0.0 ], [ 6.551942674971684, 62.483981998549908, 0.0 ], [ 6.552278129225229, 62.483916000224596, 0.0 ], [ 6.552605986214287, 62.483939773567087, 0.0 ], [ 6.552776068514804, 62.483996565501215, 0.0 ], [ 6.553002803812272, 62.484072435748601, 0.0 ], [ 6.553383774187023, 62.484159961798213, 0.0 ], [ 6.553970877647101, 62.484340887583969, 0.0 ], [ 6.554499985488468, 62.48427837281649, 0.0 ], [ 6.554985333798687, 62.484277682582359, 0.0 ], [ 6.555183543533603, 62.484227433077052, 0.0 ], [ 6.556449354202132, 62.484653737105397, 0.0 ], [ 6.559315128220875, 62.484739741962521, 0.0 ], [ 6.560673466352716, 62.484745576248841, 0.0 ], [ 6.561009900016698, 62.484903983112943, 0.0 ], [ 6.561592109943587, 62.484905281808302, 0.0 ], [ 6.561731488292778, 62.484896423637828, 0.0 ], [ 6.561923758378778, 62.48488419114036, 0.0 ], [ 6.562647560435626, 62.484815973375731, 0.0 ], [ 6.5639678653647, 62.484812053692444, 0.0 ], [ 6.566429649496115, 62.484854988749341, 0.0 ], [ 6.566731361645791, 62.48472557374901, 0.0 ], [ 6.567936670199875, 62.484701704344474, 0.0 ], [ 6.568040953648713, 62.48461365921856, 0.0 ], [ 6.567499904622407, 62.483867823925827, 0.0 ], [ 6.567500266725741, 62.483625417178182, 0.0 ], [ 6.56818651065984, 62.483305142985053, 0.0 ], [ 6.56817975010108, 62.48290983705536, 0.0 ], [ 6.567602472550703, 62.482369903134668, 0.0 ], [ 6.567206404853954, 62.482228298009332, 0.0 ], [ 6.56571336244854, 62.482211255681037, 0.0 ], [ 6.564777754717561, 62.482257745845807, 0.0 ], [ 6.564308354136924, 62.482303427297573, 0.0 ], [ 6.563278165640368, 62.482321390024026, 0.0 ], [ 6.563113665565137, 62.482245621852854, 0.0 ], [ 6.563090884889592, 62.482235112564439, 0.0 ], [ 6.563034945805818, 62.482209397739702, 0.0 ], [ 6.562991363519509, 62.482028986917619, 0.0 ], [ 6.56353274219691, 62.481580418985757, 0.0 ], [ 6.563914154788465, 62.481425332318381, 0.0 ], [ 6.564298098104594, 62.481001052382723, 0.0 ], [ 6.564352412706439, 62.480570982953168, 0.0 ], [ 6.56473754880469, 62.480371140058864, 0.0 ], [ 6.564789874363136, 62.479967956667174, 0.0 ], [ 6.564740536725775, 62.479859275097695, 0.0 ], [ 6.564503078086472, 62.479675556814385, 0.0 ], [ 6.564017903511442, 62.479675926350055, 0.0 ], [ 6.563630999535047, 62.479184318401217, 0.0 ], [ 6.563187039204405, 62.478916130252678, 0.0 ], [ 6.562316944661607, 62.478640516225852, 0.0 ], [ 6.561741382955649, 62.478558598871125, 0.0 ], [ 6.560656827871441, 62.478530683626424, 0.0 ], [ 6.559303926543523, 62.478462120937571, 0.0 ], [ 6.557462852009198, 62.478429928025605, 0.0 ], [ 6.555048889425864, 62.478755811295208, 0.0 ], [ 6.553196231707008, 62.478867106359331, 0.0 ], [ 6.551938981499317, 62.479051522242301, 0.0 ], [ 6.5508148491473, 62.479274301380279, 0.0 ], [ 6.550196969299687, 62.4794699465835, 0.0 ], [ 6.550000004024382, 62.479483681702433, 0.0 ], [ 6.549474659868606, 62.479520210723607, 0.0 ], [ 6.546990348402331, 62.479521465112924, 0.0 ], [ 6.545824686640071, 62.479536903104865, 0.0 ], [ 6.542535966226431, 62.479407173651353, 0.0 ], [ 6.540586739953862, 62.479274037485062, 0.0 ], [ 6.539819593460625, 62.479161726003333, 0.0 ], [ 6.539536270493621, 62.47906684050897, 0.0 ], [ 6.539474978153134, 62.478868262847598, 0.0 ], [ 6.539276539307536, 62.478685159614592, 0.0 ], [ 6.538314200455232, 62.478353802188721, 0.0 ], [ 6.537153245783301, 62.477839409556218, 0.0 ], [ 6.536673113076127, 62.477543533939723, 0.0 ], [ 6.535750113082341, 62.477203809015194, 0.0 ], [ 6.53531258220416, 62.477097417976424, 0.0 ], [ 6.53467385677514, 62.477077103714429, 0.0 ], [ 6.53234785633821, 62.477278619506272, 0.0 ], [ 6.530758853527654, 62.477250356875182, 0.0 ], [ 6.529838279098398, 62.477117138392771, 0.0 ], [ 6.528964801036627, 62.477119846423705, 0.0 ], [ 6.527694055615178, 62.47723213152986, 0.0 ], [ 6.526097583127187, 62.477293597294143, 0.0 ], [ 6.524979720353738, 62.47720193824906, 0.0 ], [ 6.524311921286269, 62.47729776829874, 0.0 ], [ 6.523863977948738, 62.477316802494016, 0.0 ], [ 6.523389158018484, 62.47742515331484, 0.0 ], [ 6.523095614526534, 62.47745579645418, 0.0 ], [ 6.522212253173023, 62.477341332433525, 0.0 ], [ 6.521205478692886, 62.47731451994283, 0.0 ], [ 6.520617362536075, 62.477384856818603, 0.0 ], [ 6.520340181916211, 62.477451814378838, 0.0 ], [ 6.519746143929168, 62.47736045590959, 0.0 ], [ 6.518240099749461, 62.477270642205745, 0.0 ], [ 6.51760843464695, 62.477160711827828, 0.0 ], [ 6.517032419458649, 62.477087606948977, 0.0 ], [ 6.516865636468127, 62.477038736677223, 0.0 ], [ 6.51644509842268, 62.476915437525193, 0.0 ], [ 6.515678087957621, 62.47680308403617, 0.0 ], [ 6.51417486881371, 62.476911041072, 0.0 ], [ 6.512325101114347, 62.476752329038725, 0.0 ], [ 6.511356231188962, 62.476734991510718, 0.0 ], [ 6.510972427747164, 62.476683298982259, 0.0 ], [ 6.510294887157474, 62.476662209675347, 0.0 ], [ 6.509916950728567, 62.476772205409247, 0.0 ], [ 6.508693283140397, 62.477019809350963, 0.0 ], [ 6.507040332020058, 62.477062149153085, 0.0 ], [ 6.506172341688084, 62.477026477836141, 0.0 ], [ 6.504332411760894, 62.476950733542886, 0.0 ], [ 6.503650646704275, 62.476750043218679, 0.0 ], [ 6.503458248825097, 62.476728672302613, 0.0 ], [ 6.503322699210888, 62.47672623334531, 0.0 ], [ 6.501919321841042, 62.476566382515706, 0.0 ], [ 6.499999952466815, 62.476446412714552, 0.0 ], [ 6.499100782761343, 62.476390174854906, 0.0 ], [ 6.496188104163291, 62.476409755438965, 0.0 ], [ 6.49590866011586, 62.476388361875507, 0.0 ], [ 6.495262581442302, 62.476339228460027, 0.0 ], [ 6.494488150075659, 62.476316360293893, 0.0 ], [ 6.493526841630269, 62.476209298210961, 0.0 ], [ 6.492651584065142, 62.476004982976704, 0.0 ], [ 6.491242767668444, 62.475907919583499, 0.0 ], [ 6.490277684940354, 62.475845407766208, 0.0 ], [ 6.48964654634876, 62.475735376031636, 0.0 ], [ 6.488525409153362, 62.475221261998655, 0.0 ], [ 6.487949932552822, 62.474681035408587, 0.0 ], [ 6.487079872159298, 62.474413946977904, 0.0 ], [ 6.485637082345603, 62.473804163512519, 0.0 ], [ 6.484896934763001, 62.473602133306933, 0.0 ], [ 6.484134026962145, 62.473444770734147, 0.0 ], [ 6.48301591560989, 62.473128172062481, 0.0 ], [ 6.481364554362858, 62.472460801477581, 0.0 ], [ 6.480588814306494, 62.472455746742035, 0.0 ], [ 6.480109701397256, 62.472384192049596, 0.0 ], [ 6.479237693240871, 62.472368422562397, 0.0 ], [ 6.478986024179933, 62.47236396725183, 0.0 ], [ 6.478813822054961, 62.472379123154795, 0.0 ], [ 6.478419437838483, 62.472407444637682, 0.0 ], [ 6.476622150932036, 62.472545775904479, 0.0 ], [ 6.475419382482404, 62.472613341973187, 0.0 ], [ 6.475414025699186, 62.472613644770284, 0.0 ], [ 6.474638259717485, 62.472608645529796, 0.0 ], [ 6.473691325344817, 62.472557426551433, 0.0 ], [ 6.473368176860525, 62.472540884035965, 0.0 ], [ 6.472404536794524, 62.472406512181124, 0.0 ], [ 6.47109003188583, 62.471888828799884, 0.0 ], [ 6.470261644992553, 62.471819768441364, 0.0 ], [ 6.469300388765285, 62.471712530764712, 0.0 ], [ 6.468431903967837, 62.471660774110767, 0.0 ], [ 6.467412335629779, 62.471552732712425, 0.0 ], [ 6.466632508478833, 62.471367756356223, 0.0 ], [ 6.465561536166573, 62.471186703900578, 0.0 ], [ 6.464360052438285, 62.470940328518424, 0.0 ], [ 6.462905945848984, 62.470698341155185, 0.0 ], [ 6.461361208066258, 62.470607307804528, 0.0 ], [ 6.460490072912457, 62.470582527627435, 0.0 ], [ 6.459029812915598, 62.470870132769683, 0.0 ], [ 6.458206969739572, 62.470963045139243, 0.0 ], [ 6.457470096455531, 62.470958628798464, 0.0 ], [ 6.457089786317866, 62.47087085915237, 0.0 ], [ 6.456175381821703, 62.470441015590922, 0.0 ], [ 6.455730614180356, 62.470423977055496, 0.0 ], [ 6.455621448290494, 62.470358434372166, 0.0 ], [ 6.455545819980663, 62.470312666251786, 0.0 ], [ 6.455120896947466, 62.470172452921226, 0.0 ], [ 6.454998596187542, 62.470132207493641, 0.0 ], [ 6.454769764288286, 62.470083042739773, 0.0 ], [ 6.453789579462324, 62.469975428147386, 0.0 ], [ 6.453069518344702, 62.469773729944066, 0.0 ], [ 6.452580499376655, 62.469593869923344, 0.0 ], [ 6.451575339559536, 62.469548657985378, 0.0 ], [ 6.450883500068834, 62.469697669616892, 0.0 ], [ 6.450396166534798, 62.469724782575476, 0.0 ], [ 6.45000025849208, 62.469598448022829, 0.0 ], [ 6.449829605773523, 62.469543830923826, 0.0 ], [ 6.449389241121935, 62.469472929528102, 0.0 ], [ 6.448326283876306, 62.469426475321569, 0.0 ], [ 6.447891811310631, 62.469517369823151, 0.0 ], [ 6.447251484218121, 62.469514610884232, 0.0 ], [ 6.446131759341236, 62.469449096827283, 0.0 ], [ 6.445076287897212, 62.469313010381242, 0.0 ], [ 6.443081698235467, 62.469267616082725, 0.0 ], [ 6.441925848992206, 62.469174450254471, 0.0 ], [ 6.441061437775055, 62.469068924757849, 0.0 ], [ 6.440662439661151, 62.468971731146794, 0.0 ], [ 6.440088245083008, 62.468880424822622, 0.0 ], [ 6.439404859655117, 62.468706211592448, 0.0 ], [ 6.439062869590678, 62.468619130372836, 0.0 ], [ 6.43780055669383, 62.468407326475436, 0.0 ], [ 6.436944171909065, 62.468211838010951, 0.0 ], [ 6.435918208438701, 62.46818410455397, 0.0 ], [ 6.434567835361271, 62.467871786235051, 0.0 ], [ 6.433017714737327, 62.467618742398422, 0.0 ], [ 6.431466067330486, 62.467617188113245, 0.0 ], [ 6.430778390419675, 62.467487834306176, 0.0 ], [ 6.43034264622833, 62.467372073889599, 0.0 ], [ 6.429668795743479, 62.467305724869355, 0.0 ], [ 6.429288453179161, 62.467217780628012, 0.0 ], [ 6.42641765181176, 62.467209805167599, 0.0 ], [ 6.42328440161509, 62.467322572304589, 0.0 ], [ 6.421428125366626, 62.46747694919727, 0.0 ], [ 6.420807666937843, 62.467474392605389, 0.0 ], [ 6.418675070134763, 62.467228201987716, 0.0 ], [ 6.417705017007348, 62.467003772988562, 0.0 ], [ 6.416585433325511, 62.466489282190523, 0.0 ], [ 6.415864193602091, 62.46585599903765, 0.0 ], [ 6.414898323292584, 62.465362219267291, 0.0 ], [ 6.413058914725008, 62.464870116626557, 0.0 ], [ 6.412230665983315, 62.464800792599348, 0.0 ], [ 6.411456825646746, 62.464777479576838, 0.0 ], [ 6.410454279127434, 62.464929524088866, 0.0 ], [ 6.409229989396404, 62.465176133754873, 0.0 ], [ 6.408316829275017, 62.465195208195816, 0.0 ], [ 6.407633018237739, 62.465245126662978, 0.0 ], [ 6.406574008115017, 62.465378373895881, 0.0 ], [ 6.405846796097624, 62.465490549840652, 0.0 ], [ 6.404620759553825, 62.465755082265304, 0.0 ], [ 6.403996314142039, 62.465797374027659, 0.0 ], [ 6.403584407250576, 62.465846347958284, 0.0 ], [ 6.403212156072102, 62.465890463757354, 0.0 ], [ 6.402149182677215, 62.465843825147196, 0.0 ], [ 6.401880325380905, 62.46578901134734, 0.0 ], [ 6.40098643762136, 62.465606678483809, 0.0 ], [ 6.400000435989804, 62.465405520309019, 0.0 ], [ 6.399823737404749, 62.465369433644071, 0.0 ], [ 6.399340941796102, 62.465342439388962, 0.0 ], [ 6.398714153317868, 62.46541166571054, 0.0 ], [ 6.397899380318238, 62.465414375231425, 0.0 ], [ 6.397074930385769, 62.465300293051129, 0.0 ], [ 6.396107217852599, 62.465273165239246, 0.0 ], [ 6.395707745599609, 62.465184928550734, 0.0 ], [ 6.395473182463166, 62.464982888190391, 0.0 ], [ 6.395323412071171, 62.464917208093055, 0.0 ], [ 6.395091040173877, 62.464912982251633, 0.0 ], [ 6.394656433524545, 62.464779012280516, 0.0 ], [ 6.39434982034458, 62.464737376897894, 0.0 ], [ 6.39402584600363, 62.464892974162908, 0.0 ], [ 6.393728925772558, 62.46495927210195, 0.0 ], [ 6.393290662321286, 62.464870244013291, 0.0 ], [ 6.392953829064331, 62.46450472998967, 0.0 ], [ 6.392319351814424, 62.464438922158649, 0.0 ], [ 6.391597258798871, 62.464488189738233, 0.0 ], [ 6.390668212615892, 62.464686493707291, 0.0 ], [ 6.389512239763377, 62.465042075659554, 0.0 ], [ 6.389123625743108, 62.465268362277527, 0.0 ], [ 6.389121666257849, 62.465735338826669, 0.0 ], [ 6.388975801558015, 62.465849325038903, 0.0 ], [ 6.388682754166445, 62.466095284809612, 0.0 ], [ 6.387815401519897, 62.466474219195035, 0.0 ], [ 6.387362881682148, 62.466546641687977, 0.0 ], [ 6.387075983391458, 62.466720883502866, 0.0 ], [ 6.386884982097969, 62.467130300972258, 0.0 ], [ 6.386937721594352, 62.467418719047643, 0.0 ], [ 6.388525635015249, 62.468337711000132, 0.0 ], [ 6.389202721581506, 62.468583895731236, 0.0 ], [ 6.38954351525206, 62.468680067363707, 0.0 ], [ 6.390156848698573, 62.468987966875005, 0.0 ], [ 6.390461745436378, 62.469056517151664, 0.0 ], [ 6.391964388441108, 62.469174470979929, 0.0 ], [ 6.394704747616842, 62.469566886493546, 0.0 ], [ 6.395591974156606, 62.469628410131875, 0.0 ], [ 6.396461198265559, 62.46989615601926, 0.0 ], [ 6.397134372081134, 62.470187137427438, 0.0 ], [ 6.398500316705417, 62.470320379176059, 0.0 ], [ 6.399176604975041, 62.470350802589557, 0.0 ], [ 6.399611695960521, 62.470484783915346, 0.0 ], [ 6.399904133952983, 62.470912388118862, 0.0 ], [ 6.400000222691737, 62.470995057095557, 0.0 ], [ 6.40013879708657, 62.471114333534615, 0.0 ], [ 6.400626138075634, 62.471311905730374, 0.0 ], [ 6.401580717471661, 62.471491495239626, 0.0 ], [ 6.401889101437257, 62.47151515166599, 0.0 ], [ 6.402602676572996, 62.471788914339321, 0.0 ], [ 6.40294815662334, 62.472055823124109, 0.0 ], [ 6.403954508100372, 62.472532592690762, 0.0 ], [ 6.404145107524784, 62.472572064096532, 0.0 ], [ 6.405074225226429, 62.473047374882029, 0.0 ], [ 6.405604231781201, 62.47320095506069, 0.0 ], [ 6.405996218277044, 62.473378857654943, 0.0 ], [ 6.406523921086575, 62.473559304258927, 0.0 ], [ 6.407645187564351, 62.473831670934779, 0.0 ], [ 6.40822124537473, 62.473905158726026, 0.0 ], [ 6.408801330322883, 62.473924957580614, 0.0 ], [ 6.40918190966505, 62.474012881475026, 0.0 ], [ 6.409425959272586, 62.474107155736839, 0.0 ], [ 6.410295635982875, 62.474150233487833, 0.0 ], [ 6.410623540318326, 62.474262352334868, 0.0 ], [ 6.410691235365216, 62.474285431062619, 0.0 ], [ 6.411407528295136, 62.474530038451576, 0.0 ], [ 6.411803580563354, 62.475112286826331, 0.0 ], [ 6.413045738126242, 62.475557519179198, 0.0 ], [ 6.413680119282311, 62.475856663667038, 0.0 ], [ 6.414263283793693, 62.476064996911738, 0.0 ], [ 6.414618255475226, 62.476219978961453, 0.0 ], [ 6.41493955456541, 62.476361128859402, 0.0 ], [ 6.414972182865772, 62.476374533855754, 0.0 ], [ 6.415273102120532, 62.476505837416681, 0.0 ], [ 6.415914737254838, 62.476715255555199, 0.0 ], [ 6.416545955572839, 62.476825730507315, 0.0 ], [ 6.417896716888024, 62.47713823950312, 0.0 ], [ 6.418415509816746, 62.477170370280454, 0.0 ], [ 6.419344545494336, 62.477227903928117, 0.0 ], [ 6.419646693040547, 62.477323315945078, 0.0 ], [ 6.422251708542352, 62.477497157702722, 0.0 ], [ 6.423605823780364, 62.477549083789867, 0.0 ], [ 6.426565093862284, 62.477442209404458, 0.0 ], [ 6.427879429682643, 62.477277700734376, 0.0 ], [ 6.429528201483369, 62.477290158103479, 0.0 ], [ 6.430198096475304, 62.477625834653139, 0.0 ], [ 6.430739645876979, 62.47764478046637, 0.0 ], [ 6.43103055050531, 62.477650122011156, 0.0 ], [ 6.431327138924968, 62.477583721323256, 0.0 ], [ 6.431556656342654, 62.477623841905505, 0.0 ], [ 6.432002992741819, 62.477622982541128, 0.0 ], [ 6.432771051039887, 62.477493671296351, 0.0 ], [ 6.433023969850843, 62.477489252135996, 0.0 ], [ 6.433163091707412, 62.477446900314078, 0.0 ], [ 6.433656389836228, 62.477357061361666, 0.0 ], [ 6.434561946386126, 62.477427675068341, 0.0 ], [ 6.435155913278093, 62.47751931644941, 0.0 ], [ 6.435542818812081, 62.47753564130042, 0.0 ], [ 6.435704980237271, 62.477519645333849, 0.0 ], [ 6.43708892717631, 62.477384287780993, 0.0 ], [ 6.437568803724163, 62.477222507438377, 0.0 ], [ 6.438208716892341, 62.477225278165498, 0.0 ], [ 6.43864497445635, 62.477116539910931, 0.0 ], [ 6.440575691188748, 62.477008244088331, 0.0 ], [ 6.441988895017014, 62.477052166316398, 0.0 ], [ 6.443004134620542, 62.477205474583116, 0.0 ], [ 6.443547380021649, 62.477206316504528, 0.0 ], [ 6.444026446451184, 62.477278085866068, 0.0 ], [ 6.4447521506094, 62.477291363022616, 0.0 ], [ 6.446448613840389, 62.47732246255979, 0.0 ], [ 6.447220735331828, 62.477372469324237, 0.0 ], [ 6.447950991323762, 62.47768223505625, 0.0 ], [ 6.448867477405591, 62.477860660955542, 0.0 ], [ 6.449404879099723, 62.477933300155904, 0.0 ], [ 6.449932718968313, 62.478113664433067, 0.0 ], [ 6.450000045238921, 62.47812730407594, 0.0 ], [ 6.451249051819967, 62.478380161344809, 0.0 ], [ 6.452213359692488, 62.478451660652972, 0.0 ], [ 6.452592498053484, 62.478557345335936, 0.0 ], [ 6.453480777283834, 62.478609511053769, 0.0 ], [ 6.453857624193178, 62.478742152393984, 0.0 ], [ 6.454046412816194, 62.479032942638788, 0.0 ], [ 6.454393911108172, 62.479281755114023, 0.0 ], [ 6.454770770562586, 62.479414394185397, 0.0 ], [ 6.454980260621026, 62.47946317619386, 0.0 ], [ 6.45559417002564, 62.479546198197617, 0.0 ], [ 6.456271472298234, 62.479800975061202, 0.0 ], [ 6.457055846713912, 62.479932080121117, 0.0 ], [ 6.458015426877077, 62.480290792332475, 0.0 ], [ 6.459191179015017, 62.480384215561109, 0.0 ], [ 6.459816509245023, 62.480566028717249, 0.0 ], [ 6.460407441134185, 62.480918265196351, 0.0 ], [ 6.461616375798575, 62.481308303534455, 0.0 ], [ 6.462872370372375, 62.481376102557, 0.0 ], [ 6.463977326155686, 62.481620773436525, 0.0 ], [ 6.464668380229623, 62.481714104388075, 0.0 ], [ 6.465344140881562, 62.481753371403414, 0.0 ], [ 6.466894870243292, 62.481781466459871, 0.0 ], [ 6.467467723828531, 62.481890721933254, 0.0 ], [ 6.468294998367647, 62.481977514721088, 0.0 ], [ 6.469235936814608, 62.482004449222551, 0.0 ], [ 6.469998910578246, 62.482026296138585, 0.0 ], [ 6.470333050352949, 62.481978475857588, 0.0 ], [ 6.471106929837222, 62.481776952563244, 0.0 ], [ 6.471357359038731, 62.48179959040678, 0.0 ], [ 6.471829486641812, 62.48218529222568, 0.0 ], [ 6.472226069763746, 62.48231827924559, 0.0 ], [ 6.472703504426507, 62.482407728730372, 0.0 ], [ 6.473633028114957, 62.482433659211466, 0.0 ], [ 6.474206163807343, 62.482542721786615, 0.0 ], [ 6.474597870020248, 62.482729422447427, 0.0 ], [ 6.475368734761354, 62.482797253578383, 0.0 ], [ 6.477519611541375, 62.48306963960146, 0.0 ], [ 6.478768757606841, 62.483217989715278, 0.0 ], [ 6.479199550481145, 62.483405362347526, 0.0 ], [ 6.479979351827551, 62.483823585760511, 0.0 ], [ 6.48206225286533, 62.483986928451486, 0.0 ], [ 6.482099377354515, 62.483993636375438, 0.0 ], [ 6.48278880449632, 62.484116763096019, 0.0 ], [ 6.483702701909078, 62.484097308340701, 0.0 ], [ 6.484482057102738, 62.483832994359872, 0.0 ] ] ] ] } }
]
}
